{"type":"FeatureCollection","timeStamp":"2026-09-22T10:56:04Z","links":[{"rel":"self","title":"This document as GeoJSON","type":"application/geo+json","href":"https://api.pdok.nl/lv/bgt/ogc/v1/collections/pand/items?bbox=5.3180%2C52.3334%2C5.3212%2C52.3351&crs=http%3A%2F%2Fwww.opengis.net%2Fdef%2Fcrs%2FEPSG%2F0%2F28992&f=json&limit=1000"},{"rel":"alternate","title":"This document as JSON-FG","type":"application/vnd.ogc.fg+json","href":"https://api.pdok.nl/lv/bgt/ogc/v1/collections/pand/items?bbox=5.3180%2C52.3334%2C5.3212%2C52.3351&crs=http%3A%2F%2Fwww.opengis.net%2Fdef%2Fcrs%2FEPSG%2F0%2F28992&f=jsonfg&limit=1000"},{"rel":"alternate","title":"This document as HTML","type":"text/html","href":"https://api.pdok.nl/lv/bgt/ogc/v1/collections/pand/items?bbox=5.3180%2C52.3334%2C5.3212%2C52.3351&crs=http%3A%2F%2Fwww.opengis.net%2Fdef%2Fcrs%2FEPSG%2F0%2F28992&f=html&limit=1000"}],"features":[{"type":"Feature","properties":{"bag_pnd":"0034100000110205","bronhouder":"G0034","creation_date":"2017-09-28T22:00:00Z","eind_registratie":null,"in_onderzoek":null,"in_onderzoek_leeg":"geenWaarde","lokaal_id":"G0034.80623efcfadf48f7be07cd2ff25edd2b","lv_publicatiedatum":"2017-10-02T10:46:32Z","plus_status":null,"plus_status_codespace":"http://www.geostandaarden.nl/imgeo/def/2.1#VoidReasonValue","plus_status_leeg":"geenWaarde","relatieve_hoogteligging":0,"status":"bestaand","status_codespace":"http://www.geostandaarden.nl/imgeo/def/2.1#Status","status_leeg":null,"termination_date":null,"termination_date_leeg":"geenWaarde","tijdstip_registratie":"2017-10-02T09:51:54Z","version":"e64f21c3-f77f-dfe8-bad5-d71098b38ca1"},"geometry":{"type":"MultiPolygon","coordinates":[[[[150360.105,483004.679],[150358.897,483003.79],[150361.03,483000.891],[150362.238,483001.779],[150366.594,482995.859],[150365.385,482994.97],[150367.993,482991.426],[150375.242,482996.759],[150372.872,482999.981],[150374.08,483000.87],[150366.969,483010.536],[150359.72,483005.203],[150360.105,483004.679]]]]},"id":"abcdad1f-ed4a-5ab4-a5a5-7d4713898489"},{"type":"Feature","properties":{"bag_pnd":"0034100000110124","bronhouder":"G0034","creation_date":"2017-09-28T22:00:00Z","eind_registratie":null,"in_onderzoek":null,"in_onderzoek_leeg":"geenWaarde","lokaal_id":"G0034.87de224e7fab4e71bdd4dbe744c9a4d5","lv_publicatiedatum":"2017-10-02T10:46:32Z","plus_status":null,"plus_status_codespace":"http://www.geostandaarden.nl/imgeo/def/2.1#VoidReasonValue","plus_status_leeg":"geenWaarde","relatieve_hoogteligging":0,"status":"bestaand","status_codespace":"http://www.geostandaarden.nl/imgeo/def/2.1#Status","status_leeg":null,"termination_date":null,"termination_date_leeg":"geenWaarde","tijdstip_registratie":"2017-10-02T09:52:22Z","version":"04a25368-d982-19f4-4820-05c589220c55"},"geometry":{"type":"MultiPolygon","coordinates":[[[[150338.267,482940.966],[150338.717,482940.966],[150338.717,482941.116],[150346.917,482941.116],[150346.917,482940.966],[150347.367,482940.966],[150347.367,482946.723],[150347.217,482946.723],[150347.217,482956.416],[150347.367,482956.416],[150347.367,482956.866],[150346.917,482956.866],[150346.917,482956.716],[150342.667,482956.716],[150342.667,482955.366],[150338.717,482955.366],[150338.717,482956.866],[150338.267,482956.866],[150338.267,482950.26],[150338.417,482950.26],[150338.417,482942.709],[150338.267,482942.709],[150338.267,482940.966]]]]},"id":"844c26fe-d201-52d0-8c55-8ae031d22b21"},{"type":"Feature","properties":{"bag_pnd":"0034100000110196","bronhouder":"G0034","creation_date":"2017-09-28T22:00:00Z","eind_registratie":null,"in_onderzoek":null,"in_onderzoek_leeg":"geenWaarde","lokaal_id":"G0034.94e512ce26604b39b1a694f1c3e6a16a","lv_publicatiedatum":"2017-10-02T10:46:32Z","plus_status":null,"plus_status_codespace":"http://www.geostandaarden.nl/imgeo/def/2.1#VoidReasonValue","plus_status_leeg":"geenWaarde","relatieve_hoogteligging":0,"status":"bestaand","status_codespace":"http://www.geostandaarden.nl/imgeo/def/2.1#Status","status_leeg":null,"termination_date":null,"termination_date_leeg":"geenWaarde","tijdstip_registratie":"2017-10-02T09:51:27Z","version":"56ec6df3-b78a-b83f-f105-84c86ce52f55"},"geometry":{"type":"MultiPolygon","coordinates":[[[[150297.146,483014.669],[150297.739,483012.447],[150296.387,483012.085],[150297.96,483006.192],[150307.525,483008.746],[150305.358,483016.861],[150303.619,483016.397],[150302.381,483021.035],[150295.908,483019.306],[150297.146,483014.669]]]]},"id":"c6030e72-a209-5e07-b02e-b46663286232"},{"type":"Feature","properties":{"bag_pnd":"0034100000110079","bronhouder":"G0034","creation_date":"2017-09-28T22:00:00Z","eind_registratie":null,"in_onderzoek":null,"in_onderzoek_leeg":"geenWaarde","lokaal_id":"G0034.ab890a9fb2af47fc9e54acf5db0301e6","lv_publicatiedatum":"2017-10-02T10:46:32Z","plus_status":null,"plus_status_codespace":"http://www.geostandaarden.nl/imgeo/def/2.1#VoidReasonValue","plus_status_leeg":"geenWaarde","relatieve_hoogteligging":0,"status":"bestaand","status_codespace":"http://www.geostandaarden.nl/imgeo/def/2.1#Status","status_leeg":null,"termination_date":null,"termination_date_leeg":"geenWaarde","tijdstip_registratie":"2017-10-02T09:42:39Z","version":"d0f34be7-9ad9-ae7d-2666-91f5520d7d8b"},"geometry":{"type":"MultiPolygon","coordinates":[[[[150317.074,482911.172],[150321.307,482914.154],[150314.898,482923.253],[150309.232,482919.262],[150315.464,482910.417],[150312.22,482908.132],[150314.132,482905.418],[150318.808,482908.712],[150317.074,482911.172]]]]},"id":"9431b766-7f3d-53d9-83e1-f76080d3fc55"},{"type":"Feature","properties":{"bag_pnd":"0034100000110460","bronhouder":"G0034","creation_date":"2017-09-28T22:00:00Z","eind_registratie":null,"in_onderzoek":null,"in_onderzoek_leeg":"geenWaarde","lokaal_id":"G0034.e56bb33b082b4b6e9da62e7e85646c17","lv_publicatiedatum":"2017-10-02T10:46:32Z","plus_status":null,"plus_status_codespace":"http://www.geostandaarden.nl/imgeo/def/2.1#VoidReasonValue","plus_status_leeg":"geenWaarde","relatieve_hoogteligging":0,"status":"bestaand","status_codespace":"http://www.geostandaarden.nl/imgeo/def/2.1#Status","status_leeg":null,"termination_date":null,"termination_date_leeg":"geenWaarde","tijdstip_registratie":"2017-10-02T09:41:54Z","version":"d586bb99-0864-bf2b-a1bc-8ce8bf87bfc7"},"geometry":{"type":"MultiPolygon","coordinates":[[[[150279.986,482895.635],[150272.098,482890.078],[150277.309,482882.681],[150279.271,482884.064],[150282.611,482879.322],[150288.537,482883.496],[150284.766,482888.849],[150284.46,482888.634],[150282.721,482891.103],[150283.026,482891.318],[150279.986,482895.635]]]]},"id":"75d12967-bd8f-5cb7-9b02-1f9f64e7a83c"},{"type":"Feature","properties":{"bag_pnd":"0034100000110154","bronhouder":"G0034","creation_date":"2017-09-28T22:00:00Z","eind_registratie":null,"in_onderzoek":null,"in_onderzoek_leeg":"geenWaarde","lokaal_id":"G0034.f8ea44f63f97453cb0a7fe5f6671af92","lv_publicatiedatum":"2017-10-02T10:46:32Z","plus_status":null,"plus_status_codespace":"http://www.geostandaarden.nl/imgeo/def/2.1#VoidReasonValue","plus_status_leeg":"geenWaarde","relatieve_hoogteligging":0,"status":"bestaand","status_codespace":"http://www.geostandaarden.nl/imgeo/def/2.1#Status","status_leeg":null,"termination_date":null,"termination_date_leeg":"geenWaarde","tijdstip_registratie":"2017-10-02T09:39:53Z","version":"4e6fbafe-e1a8-5e50-c728-2a0d32cd3f43"},"geometry":{"type":"MultiPolygon","coordinates":[[[[150277.438,482970.715],[150271.388,482966.453],[150277.608,482957.624],[150283.657,482961.886],[150281.198,482965.376],[150281.28,482965.434],[150279.535,482967.911],[150279.453,482967.854],[150277.438,482970.715]]]]},"id":"4eb9417c-e4b1-5a10-b4cc-2511967d7625"},{"type":"Feature","properties":{"bag_pnd":"0034100000110717","bronhouder":"G0034","creation_date":"2018-05-14T22:00:00Z","eind_registratie":null,"in_onderzoek":null,"in_onderzoek_leeg":"geenWaarde","lokaal_id":"G0034.5d851085b56c4fbb93400b1daacd1fb4","lv_publicatiedatum":"2018-05-25T10:06:48Z","plus_status":null,"plus_status_codespace":"http://www.geostandaarden.nl/imgeo/def/2.1#VoidReasonValue","plus_status_leeg":"geenWaarde","relatieve_hoogteligging":0,"status":"bestaand","status_codespace":"http://www.geostandaarden.nl/imgeo/def/2.1#Status","status_leeg":null,"termination_date":null,"termination_date_leeg":"geenWaarde","tijdstip_registratie":"2018-05-15T13:37:02Z","version":"80ff62d6-33c0-4830-2da9-9b9e080acb22"},"geometry":{"type":"MultiPolygon","coordinates":[[[[150452.032,482939.053],[150449.107,482945.081],[150445.652,482943.404],[150447.237,482940.139],[150441.003,482937.113],[150441.147,482936.816],[150435.308,482933.982],[150436.173,482932.201],[150433.501,482930.904],[150436.475,482924.777],[150444.985,482928.908],[150446.282,482926.236],[150452.606,482929.306],[150448.668,482937.42],[150452.032,482939.053]]]]},"id":"7fc46bea-1eca-5d1f-a643-1350068300f9"},{"type":"Feature","properties":{"bag_pnd":"0034100000111277","bronhouder":"G0034","creation_date":"2019-04-09T22:00:00Z","eind_registratie":"2020-07-27T06:58:40Z","in_onderzoek":null,"in_onderzoek_leeg":"geenWaarde","lokaal_id":"G0034.0355af3576c644f1a959f815425e8986","lv_publicatiedatum":"2019-04-10T15:29:30Z","plus_status":null,"plus_status_codespace":"http://www.geostandaarden.nl/imgeo/def/2.1#VoidReasonValue","plus_status_leeg":"geenWaarde","relatieve_hoogteligging":0,"status":"bestaand","status_codespace":"http://www.geostandaarden.nl/imgeo/def/2.1#Status","status_leeg":null,"termination_date":null,"termination_date_leeg":"geenWaarde","tijdstip_registratie":"2019-04-10T14:47:21Z","version":"bd8ae828-36a5-06db-7a5e-973e486b6f30"},"geometry":{"type":"MultiPolygon","coordinates":[[[[150311.532,482840.259],[150315.003,482841.05],[150317.784,482851.678],[150309.348,482853.885],[150309.581,482854.775],[150305.499,482855.844],[150305.732,482856.734],[150297.006,482859.017],[150295.834,482854.542],[150293.509,482851.92],[150294.195,482848.279],[150299.458,482846.902],[150299.225,482846.012],[150306.345,482844.148],[150306.112,482843.258],[150309.167,482842.459],[150311.532,482840.259]]]]},"id":"1ba3d73b-3c31-5a3e-acad-07c188c7a696"},{"type":"Feature","properties":{"bag_pnd":"0034100000112794","bronhouder":"G0034","creation_date":"2019-04-09T22:00:00Z","eind_registratie":"2020-07-23T10:08:35Z","in_onderzoek":null,"in_onderzoek_leeg":"geenWaarde","lokaal_id":"G0034.0a6a452511be4a82bd0a7e741f069792","lv_publicatiedatum":"2019-04-10T15:29:30Z","plus_status":null,"plus_status_codespace":"http://www.geostandaarden.nl/imgeo/def/2.1#VoidReasonValue","plus_status_leeg":"geenWaarde","relatieve_hoogteligging":0,"status":"bestaand","status_codespace":"http://www.geostandaarden.nl/imgeo/def/2.1#Status","status_leeg":null,"termination_date":null,"termination_date_leeg":"geenWaarde","tijdstip_registratie":"2019-04-10T14:46:50Z","version":"8f81bfd9-d735-f6b5-e385-8ea5c35d8ac7"},"geometry":{"type":"MultiPolygon","coordinates":[[[[150507.3,482963.543],[150500.071,482972.38],[150498.677,482972.901],[150497.211,482972.66],[150496.061,482971.719],[150495.537,482970.328],[150495.774,482968.859],[150496.386,482968.111],[150497.657,482966.561],[150491.082,482961.173],[150492.73,482959.162],[150490.951,482957.704],[150494.656,482953.183],[150503.01,482960.028],[150503.644,482959.254],[150507.934,482962.769],[150507.3,482963.543]]]]},"id":"a7c669e2-8108-5d66-b54d-0e4bc4fcdcbf"},{"type":"Feature","properties":{"bag_pnd":"0034100000113114","bronhouder":"G0034","creation_date":"2019-04-09T22:00:00Z","eind_registratie":"2020-07-23T10:06:41Z","in_onderzoek":null,"in_onderzoek_leeg":"geenWaarde","lokaal_id":"G0034.0ed56116d0d949489654896812704055","lv_publicatiedatum":"2019-04-10T15:29:30Z","plus_status":null,"plus_status_codespace":"http://www.geostandaarden.nl/imgeo/def/2.1#VoidReasonValue","plus_status_leeg":"geenWaarde","relatieve_hoogteligging":0,"status":"bestaand","status_codespace":"http://www.geostandaarden.nl/imgeo/def/2.1#Status","status_leeg":null,"termination_date":null,"termination_date_leeg":"geenWaarde","tijdstip_registratie":"2019-04-10T14:46:35Z","version":"cafa77f7-7f9e-88c1-42d8-6f6cde2def50"},"geometry":{"type":"MultiPolygon","coordinates":[[[[150431.283,482910.547],[150429.771,482915.721],[150414.279,482911.195],[150416.649,482903.084],[150420.527,482904.217],[150420.238,482905.205],[150423.213,482906.075],[150422.925,482907.063],[150426.956,482908.241],[150426.676,482909.201],[150431.283,482910.547]]]]},"id":"e2273dc9-5e19-5ba2-ac26-e8c19eb7c3e9"},{"type":"Feature","properties":{"bag_pnd":"0034100000112212","bronhouder":"G0034","creation_date":"2019-04-09T22:00:00Z","eind_registratie":"2020-07-23T09:41:51Z","in_onderzoek":null,"in_onderzoek_leeg":"geenWaarde","lokaal_id":"G0034.2e748e302844407ebd05d5af18444a29","lv_publicatiedatum":"2019-04-10T15:29:30Z","plus_status":null,"plus_status_codespace":"http://www.geostandaarden.nl/imgeo/def/2.1#VoidReasonValue","plus_status_leeg":"geenWaarde","relatieve_hoogteligging":0,"status":"bestaand","status_codespace":"http://www.geostandaarden.nl/imgeo/def/2.1#Status","status_leeg":null,"termination_date":null,"termination_date_leeg":"geenWaarde","tijdstip_registratie":"2019-04-10T14:45:33Z","version":"cacb2c23-2c25-0266-302a-7dacb479d532"},"geometry":{"type":"MultiPolygon","coordinates":[[[[150442.063,482870.958],[150438.793,482868.654],[150436.663,482871.679],[150427.997,482865.574],[150432.719,482858.871],[150441.058,482864.745],[150443.074,482861.884],[150446.671,482864.418],[150442.063,482870.958]]]]},"id":"307bc034-0015-549e-94a9-b5f1b2361071"},{"type":"Feature","properties":{"bag_pnd":"0034100000112260","bronhouder":"G0034","creation_date":"2019-04-09T22:00:00Z","eind_registratie":"2020-07-23T12:59:07Z","in_onderzoek":null,"in_onderzoek_leeg":"geenWaarde","lokaal_id":"G0034.3243ab2788f8464e837c434e8e6b72fd","lv_publicatiedatum":"2019-04-10T15:29:30Z","plus_status":null,"plus_status_codespace":"http://www.geostandaarden.nl/imgeo/def/2.1#VoidReasonValue","plus_status_leeg":"geenWaarde","relatieve_hoogteligging":0,"status":"bestaand","status_codespace":"http://www.geostandaarden.nl/imgeo/def/2.1#Status","status_leeg":null,"termination_date":null,"termination_date_leeg":"geenWaarde","tijdstip_registratie":"2019-04-10T14:47:15Z","version":"ced2aea5-e604-08f1-26ea-5c21dcd0e635"},"geometry":{"type":"MultiPolygon","coordinates":[[[[150314.339,482995.297],[150305.898,482990.62],[150307.74,482987.296],[150305.116,482985.842],[150308.605,482979.544],[150317.833,482984.657],[150314.518,482990.64],[150316.355,482991.658],[150314.339,482995.297]]]]},"id":"cc018f27-d074-5c85-8dee-08796d92ebbc"},{"type":"Feature","properties":{"bag_pnd":"0034100000111675","bronhouder":"G0034","creation_date":"2019-04-09T22:00:00Z","eind_registratie":"2020-07-23T09:52:12Z","in_onderzoek":null,"in_onderzoek_leeg":"geenWaarde","lokaal_id":"G0034.73db9c36023c48d7853e77490a644431","lv_publicatiedatum":"2019-04-10T15:29:30Z","plus_status":null,"plus_status_codespace":"http://www.geostandaarden.nl/imgeo/def/2.1#VoidReasonValue","plus_status_leeg":"geenWaarde","relatieve_hoogteligging":0,"status":"bestaand","status_codespace":"http://www.geostandaarden.nl/imgeo/def/2.1#Status","status_leeg":null,"termination_date":null,"termination_date_leeg":"geenWaarde","tijdstip_registratie":"2019-04-10T14:47:19Z","version":"8d1cfa23-4464-5af2-7828-168761e610ec"},"geometry":{"type":"MultiPolygon","coordinates":[[[[150344.507,482891.854],[150339.194,482888.111],[150349.56,482873.396],[150354.873,482877.138],[150344.507,482891.854]]]]},"id":"e6c9dc13-7f36-51eb-985a-19d9e2d664c3"},{"type":"Feature","properties":{"bag_pnd":"0034100000110700","bronhouder":"G0034","creation_date":"2019-04-09T22:00:00Z","eind_registratie":"2020-07-23T09:53:09Z","in_onderzoek":null,"in_onderzoek_leeg":"geenWaarde","lokaal_id":"G0034.752bd0c49ece449e8ff25e4ff7407758","lv_publicatiedatum":"2019-04-10T15:29:30Z","plus_status":null,"plus_status_codespace":"http://www.geostandaarden.nl/imgeo/def/2.1#VoidReasonValue","plus_status_leeg":"geenWaarde","relatieve_hoogteligging":0,"status":"bestaand","status_codespace":"http://www.geostandaarden.nl/imgeo/def/2.1#Status","status_leeg":null,"termination_date":null,"termination_date_leeg":"geenWaarde","tijdstip_registratie":"2019-04-10T14:47:19Z","version":"4646ce57-0200-75eb-4b29-41c458961056"},"geometry":{"type":"MultiPolygon","coordinates":[[[[150336.496,482901.441],[150333.617,482905.528],[150327.982,482901.559],[150334.034,482892.969],[150342.456,482898.902],[150339.284,482903.404],[150336.496,482901.441]]]]},"id":"79d0e6f2-2dc5-5d40-b5c5-713e64414f51"},{"type":"Feature","properties":{"bag_pnd":"0034100000111567","bronhouder":"G0034","creation_date":"2019-04-09T22:00:00Z","eind_registratie":"2020-07-23T10:04:08Z","in_onderzoek":null,"in_onderzoek_leeg":"geenWaarde","lokaal_id":"G0034.8a8d3f27e1fe4aeca3e7f6015b828f71","lv_publicatiedatum":"2019-04-10T15:29:30Z","plus_status":null,"plus_status_codespace":"http://www.geostandaarden.nl/imgeo/def/2.1#VoidReasonValue","plus_status_leeg":"geenWaarde","relatieve_hoogteligging":0,"status":"bestaand","status_codespace":"http://www.geostandaarden.nl/imgeo/def/2.1#Status","status_leeg":null,"termination_date":null,"termination_date_leeg":"geenWaarde","tijdstip_registratie":"2019-04-10T14:46:43Z","version":"e9f544a0-8049-0c6d-6c03-cd888a148206"},"geometry":{"type":"MultiPolygon","coordinates":[[[[150439.822,482991.303],[150440.619,482992.201],[150443.664,482989.498],[150447.846,482994.211],[150444.605,482997.086],[150445.354,482997.931],[150442.124,483000.797],[150441.375,482999.952],[150439.057,483002.009],[150434.079,482996.399],[150435.559,482995.086],[150434.53,482993.927],[150438.793,482990.144],[150439.822,482991.303]]]]},"id":"2a2c1cea-2cb7-5ebb-a55c-c31b6f855545"},{"type":"Feature","properties":{"bag_pnd":"0034100000111900","bronhouder":"G0034","creation_date":"2019-04-09T22:00:00Z","eind_registratie":"2020-07-23T10:03:39Z","in_onderzoek":null,"in_onderzoek_leeg":"geenWaarde","lokaal_id":"G0034.8ac0cac370c049de96e1d57e462d58d0","lv_publicatiedatum":"2019-04-10T15:29:30Z","plus_status":null,"plus_status_codespace":"http://www.geostandaarden.nl/imgeo/def/2.1#VoidReasonValue","plus_status_leeg":"geenWaarde","relatieve_hoogteligging":0,"status":"bestaand","status_codespace":"http://www.geostandaarden.nl/imgeo/def/2.1#Status","status_leeg":null,"termination_date":null,"termination_date_leeg":"geenWaarde","tijdstip_registratie":"2019-04-10T14:46:44Z","version":"4a3e1165-c2e3-527f-4e46-f9d3d2850b73"},"geometry":{"type":"MultiPolygon","coordinates":[[[[150443.667,483018.914],[150447.583,483015.805],[150442.919,483009.931],[150446.444,483007.133],[150449.864,483011.44],[150452.996,483008.953],[150456.217,483013.01],[150455.042,483013.943],[150458.039,483017.718],[150448.641,483025.179],[150443.667,483018.914]]]]},"id":"c6a87380-f400-5a99-a3fa-4bf72ee709d1"},{"type":"Feature","properties":{"bag_pnd":"0034100000112807","bronhouder":"G0034","creation_date":"2019-04-09T22:00:00Z","eind_registratie":"2020-07-23T10:06:10Z","in_onderzoek":null,"in_onderzoek_leeg":"geenWaarde","lokaal_id":"G0034.99ba0318008d4ddaa9efe69d607081b4","lv_publicatiedatum":"2019-04-10T15:29:30Z","plus_status":null,"plus_status_codespace":"http://www.geostandaarden.nl/imgeo/def/2.1#VoidReasonValue","plus_status_leeg":"geenWaarde","relatieve_hoogteligging":0,"status":"bestaand","status_codespace":"http://www.geostandaarden.nl/imgeo/def/2.1#Status","status_leeg":null,"termination_date":null,"termination_date_leeg":"geenWaarde","tijdstip_registratie":"2019-04-10T14:46:41Z","version":"eaafd1b9-9da9-4283-9c55-d65751134a3d"},"geometry":{"type":"MultiPolygon","coordinates":[[[[150377.629,482926.764],[150375.819,482925.945],[150375.58,482926.472],[150375.898,482926.616],[150374.579,482929.531],[150374.261,482929.388],[150373.306,482931.5],[150368.718,482929.424],[150373.307,482919.281],[150384.56,482924.372],[150384.043,482925.515],[150384.278,482925.622],[150382.815,482928.856],[150382.58,482928.75],[150382.485,482928.96],[150381.444,482928.489],[150381.432,482928.516],[150381.325,482928.753],[150377.51,482927.027],[150377.617,482926.79],[150377.629,482926.764]]]]},"id":"db467503-a653-5e24-97a0-f72446ef71ad"},{"type":"Feature","properties":{"bag_pnd":"0034100000110755","bronhouder":"G0034","creation_date":"2019-04-09T22:00:00Z","eind_registratie":"2020-07-23T10:05:33Z","in_onderzoek":null,"in_onderzoek_leeg":"geenWaarde","lokaal_id":"G0034.afae839a70d64e7f8ad20c09d450259e","lv_publicatiedatum":"2019-04-10T15:29:30Z","plus_status":null,"plus_status_codespace":"http://www.geostandaarden.nl/imgeo/def/2.1#VoidReasonValue","plus_status_leeg":"geenWaarde","relatieve_hoogteligging":0,"status":"bestaand","status_codespace":"http://www.geostandaarden.nl/imgeo/def/2.1#Status","status_leeg":null,"termination_date":null,"termination_date_leeg":"geenWaarde","tijdstip_registratie":"2019-04-10T14:46:41Z","version":"baef4e28-95ed-2200-faaa-9735e49a128e"},"geometry":{"type":"MultiPolygon","coordinates":[[[[150394.496,482957.177],[150397.109,482954.986],[150400.635,482959.19],[150398.023,482961.382],[150402.842,482967.128],[150397.577,482971.544],[150386.018,482957.762],[150391.283,482953.346],[150394.496,482957.177]]]]},"id":"4242fc67-c332-50e9-a75e-dbe820057181"},{"type":"Feature","properties":{"bag_pnd":"0034100000112594","bronhouder":"G0034","creation_date":"2019-04-09T22:00:00Z","eind_registratie":"2020-07-23T09:45:36Z","in_onderzoek":null,"in_onderzoek_leeg":"geenWaarde","lokaal_id":"G0034.b65192afcde44777a4f64e575d83403c","lv_publicatiedatum":"2019-04-10T15:29:30Z","plus_status":null,"plus_status_codespace":"http://www.geostandaarden.nl/imgeo/def/2.1#VoidReasonValue","plus_status_leeg":"geenWaarde","relatieve_hoogteligging":0,"status":"bestaand","status_codespace":"http://www.geostandaarden.nl/imgeo/def/2.1#Status","status_leeg":null,"termination_date":null,"termination_date_leeg":"geenWaarde","tijdstip_registratie":"2019-04-10T14:45:34Z","version":"ad295c37-0cfe-d6b3-26b4-ca034991d5fe"},"geometry":{"type":"MultiPolygon","coordinates":[[[[150425.844,482847.516],[150416.157,482861.267],[150409.11,482856.302],[150418.797,482842.552],[150425.844,482847.516]]]]},"id":"77acee67-f148-5273-9f47-edb9a0b2b225"},{"type":"Feature","properties":{"bag_pnd":"0034100000113170","bronhouder":"G0034","creation_date":"2019-04-09T22:00:00Z","eind_registratie":"2020-07-23T10:07:57Z","in_onderzoek":null,"in_onderzoek_leeg":"geenWaarde","lokaal_id":"G0034.b82edd6822a5445095b6ec6a7ac21b4c","lv_publicatiedatum":"2019-04-10T15:29:30Z","plus_status":null,"plus_status_codespace":"http://www.geostandaarden.nl/imgeo/def/2.1#VoidReasonValue","plus_status_leeg":"geenWaarde","relatieve_hoogteligging":0,"status":"bestaand","status_codespace":"http://www.geostandaarden.nl/imgeo/def/2.1#Status","status_leeg":null,"termination_date":null,"termination_date_leeg":"geenWaarde","tijdstip_registratie":"2019-04-10T14:46:38Z","version":"670f18d9-a5c7-3972-5ab8-647523313ada"},"geometry":{"type":"MultiPolygon","coordinates":[[[[150398.119,482896.954],[150398.187,482898.278],[150400.484,482898.161],[150400.47,482897.892],[150400.473,482897.828],[150400.488,482897.767],[150400.516,482897.709],[150400.553,482897.658],[150400.601,482897.615],[150400.655,482897.582],[150400.715,482897.56],[150400.778,482897.551],[150401.078,482897.536],[150401.134,482897.538],[150401.19,482897.55],[150401.242,482897.571],[150401.29,482897.601],[150401.332,482897.639],[150401.367,482897.684],[150401.394,482897.734],[150401.411,482897.788],[150401.419,482897.844],[150401.433,482898.113],[150402.016,482909.574],[150402.019,482909.629],[150402.016,482909.692],[150402,482909.754],[150401.973,482909.812],[150401.935,482909.863],[150401.888,482909.906],[150401.834,482909.939],[150401.774,482909.96],[150401.711,482909.97],[150401.411,482909.985],[150401.347,482909.982],[150401.285,482909.967],[150401.228,482909.939],[150401.177,482909.902],[150401.134,482909.854],[150401.101,482909.8],[150401.079,482909.74],[150401.07,482909.677],[150401.057,482909.432],[150396.878,482909.645],[150396.67,482905.56],[150392.186,482905.788],[150392.403,482910.063],[150387.11,482910.332],[150386.913,482906.462],[150384.716,482906.574],[150384.652,482906.571],[150384.591,482906.556],[150384.533,482906.529],[150384.482,482906.491],[150384.439,482906.444],[150384.406,482906.389],[150384.384,482906.329],[150384.375,482906.266],[150383.994,482898.776],[150383.996,482898.719],[150384.008,482898.664],[150384.029,482898.611],[150384.059,482898.563],[150384.097,482898.521],[150384.142,482898.486],[150384.192,482898.46],[150384.246,482898.442],[150384.302,482898.435],[150387.123,482898.291],[150387.151,482898.839],[150389.848,482898.702],[150389.78,482897.379],[150389.783,482897.315],[150389.799,482897.253],[150389.826,482897.196],[150389.864,482897.144],[150389.911,482897.102],[150389.965,482897.069],[150390.025,482897.047],[150390.088,482897.038],[150397.778,482896.646],[150397.835,482896.648],[150397.89,482896.66],[150397.943,482896.682],[150397.991,482896.712],[150398.033,482896.75],[150398.068,482896.794],[150398.094,482896.844],[150398.112,482896.898],[150398.119,482896.954]]]]},"id":"7bb3d10d-c9dd-52d4-9c53-680089b20ef0"},{"type":"Feature","properties":{"bag_pnd":"0034100000110297","bronhouder":"G0034","creation_date":"2019-04-09T22:00:00Z","eind_registratie":"2020-07-23T09:47:40Z","in_onderzoek":null,"in_onderzoek_leeg":"geenWaarde","lokaal_id":"G0034.b9fb2f732d484613b8546d3efa7fae47","lv_publicatiedatum":"2019-04-10T15:29:30Z","plus_status":null,"plus_status_codespace":"http://www.geostandaarden.nl/imgeo/def/2.1#VoidReasonValue","plus_status_leeg":"geenWaarde","relatieve_hoogteligging":0,"status":"bestaand","status_codespace":"http://www.geostandaarden.nl/imgeo/def/2.1#Status","status_leeg":null,"termination_date":null,"termination_date_leeg":"geenWaarde","tijdstip_registratie":"2019-04-10T14:47:20Z","version":"2398c00f-1b53-0f21-b9c6-7cdc46e423a3"},"geometry":{"type":"MultiPolygon","coordinates":[[[[150379.04,482843.519],[150378.457,482851.026],[150367.36,482850.164],[150367.944,482842.657],[150379.04,482843.519]]]]},"id":"5f7c8b5a-a8d1-527d-a924-48f7df1b8926"},{"type":"Feature","properties":{"bag_pnd":"0034100000110077","bronhouder":"G0034","creation_date":"2019-04-09T22:00:00Z","eind_registratie":"2020-07-23T09:54:17Z","in_onderzoek":null,"in_onderzoek_leeg":"geenWaarde","lokaal_id":"G0034.c6618b29f2e047ea9aa5125917680077","lv_publicatiedatum":"2019-04-10T15:29:30Z","plus_status":null,"plus_status_codespace":"http://www.geostandaarden.nl/imgeo/def/2.1#VoidReasonValue","plus_status_leeg":"geenWaarde","relatieve_hoogteligging":0,"status":"bestaand","status_codespace":"http://www.geostandaarden.nl/imgeo/def/2.1#Status","status_leeg":null,"termination_date":null,"termination_date_leeg":"geenWaarde","tijdstip_registratie":"2019-04-10T14:47:18Z","version":"e5985abd-30f1-5e29-e25b-456d899e84e7"},"geometry":{"type":"MultiPolygon","coordinates":[[[[150290.033,482929.246],[150289.947,482929.369],[150296.06,482933.676],[150296.146,482933.553],[150302.09,482937.74],[150296.755,482945.315],[150284.369,482936.59],[150289.705,482929.015],[150290.033,482929.246]]]]},"id":"670c4ff3-6881-5101-a581-372f9c9cab2b"},{"type":"Feature","properties":{"bag_pnd":"0034100000111606","bronhouder":"G0034","creation_date":"2019-04-09T22:00:00Z","eind_registratie":"2020-07-23T10:05:03Z","in_onderzoek":null,"in_onderzoek_leeg":"geenWaarde","lokaal_id":"G0034.df000ff1d5fc4ec5831b93cabd5dd86f","lv_publicatiedatum":"2019-04-10T15:29:30Z","plus_status":null,"plus_status_codespace":"http://www.geostandaarden.nl/imgeo/def/2.1#VoidReasonValue","plus_status_leeg":"geenWaarde","relatieve_hoogteligging":0,"status":"bestaand","status_codespace":"http://www.geostandaarden.nl/imgeo/def/2.1#Status","status_leeg":null,"termination_date":null,"termination_date_leeg":"geenWaarde","tijdstip_registratie":"2019-04-10T14:46:42Z","version":"97d08413-487a-4aa4-faea-453861305e7c"},"geometry":{"type":"MultiPolygon","coordinates":[[[[150414.397,482988.4],[150414.34,482988.477],[150414.137,482988.327],[150413.988,482988.53],[150413.912,482988.474],[150414.061,482988.271],[150405.277,482981.81],[150405.128,482982.013],[150405.051,482981.957],[150405.201,482981.754],[150404.998,482981.605],[150405.054,482981.528],[150405.257,482981.678],[150410.533,482974.505],[150410.33,482974.355],[150410.386,482974.279],[150410.589,482974.428],[150410.738,482974.225],[150410.815,482974.282],[150410.665,482974.485],[150419.449,482980.945],[150419.599,482980.742],[150419.675,482980.799],[150419.526,482981.002],[150419.729,482981.151],[150419.672,482981.227],[150419.469,482981.078],[150414.194,482988.251],[150414.397,482988.4]]]]},"id":"e7647176-3f9c-51ed-8653-68729bbd6e19"},{"type":"Feature","properties":{"bag_pnd":"0034100000110078","bronhouder":"G0034","creation_date":"2019-04-09T22:00:00Z","eind_registratie":null,"in_onderzoek":null,"in_onderzoek_leeg":"geenWaarde","lokaal_id":"G0034.e31907482af94a86ac7be94b449bf3c0","lv_publicatiedatum":"2019-04-10T15:29:30Z","plus_status":null,"plus_status_codespace":"http://www.geostandaarden.nl/imgeo/def/2.1#VoidReasonValue","plus_status_leeg":"geenWaarde","relatieve_hoogteligging":0,"status":"bestaand","status_codespace":"http://www.geostandaarden.nl/imgeo/def/2.1#Status","status_leeg":null,"termination_date":null,"termination_date_leeg":"geenWaarde","tijdstip_registratie":"2019-04-10T14:47:18Z","version":"36c84fa9-aaaa-8278-eed3-4cd4a56ef30e"},"geometry":{"type":"MultiPolygon","coordinates":[[[[150287.216,482946.336],[150287.305,482946.4],[150286.235,482947.919],[150281.817,482944.807],[150283.579,482942.306],[150287.907,482945.355],[150287.216,482946.336]]]]},"id":"2dd46887-f81d-5ec8-b084-8c851b70ec07"},{"type":"Feature","properties":{"bag_pnd":"0034100000112808","bronhouder":"G0034","creation_date":"2019-04-09T22:00:00Z","eind_registratie":null,"in_onderzoek":null,"in_onderzoek_leeg":"geenWaarde","lokaal_id":"G0034.e3207417dc0d46a4919764e0f7d94be6","lv_publicatiedatum":"2019-04-10T15:29:30Z","plus_status":null,"plus_status_codespace":"http://www.geostandaarden.nl/imgeo/def/2.1#VoidReasonValue","plus_status_leeg":"geenWaarde","relatieve_hoogteligging":0,"status":"bestaand","status_codespace":"http://www.geostandaarden.nl/imgeo/def/2.1#Status","status_leeg":null,"termination_date":null,"termination_date_leeg":"geenWaarde","tijdstip_registratie":"2019-04-10T14:46:40Z","version":"5c7e5c13-bb72-e02b-f41a-bfb60c09e6a6"},"geometry":{"type":"MultiPolygon","coordinates":[[[[150375.352,482912.282],[150373.332,482916.748],[150368.744,482914.672],[150370.764,482910.207],[150375.352,482912.282]]]]},"id":"66cc83ad-6893-5cea-aafd-0ae704f4eb11"},{"type":"Feature","properties":{"bag_pnd":"0034100000110837","bronhouder":"G0034","creation_date":"2019-04-09T22:00:00Z","eind_registratie":"2020-07-23T09:50:56Z","in_onderzoek":null,"in_onderzoek_leeg":"geenWaarde","lokaal_id":"G0034.e6fb66ca54934ab092fef56a5c2c07d0","lv_publicatiedatum":"2019-04-10T15:29:30Z","plus_status":null,"plus_status_codespace":"http://www.geostandaarden.nl/imgeo/def/2.1#VoidReasonValue","plus_status_leeg":"geenWaarde","relatieve_hoogteligging":0,"status":"bestaand","status_codespace":"http://www.geostandaarden.nl/imgeo/def/2.1#Status","status_leeg":null,"termination_date":null,"termination_date_leeg":"geenWaarde","tijdstip_registratie":"2019-04-10T14:47:20Z","version":"4b31cb49-aa86-68e1-4f58-c43dd151c19f"},"geometry":{"type":"MultiPolygon","coordinates":[[[[150368.219,482863.91],[150364.188,482869.633],[150360.574,482867.087],[150358.27,482870.357],[150352.074,482865.992],[150358.409,482856.999],[150368.219,482863.91]]]]},"id":"0b48e2e7-4ac5-5482-89ab-4776ac3c2938"},{"type":"Feature","properties":{"bag_pnd":"0000100000000000","bronhouder":"G0034","creation_date":"2019-04-09T22:00:00Z","eind_registratie":"2020-02-14T13:33:41Z","in_onderzoek":null,"in_onderzoek_leeg":"geenWaarde","lokaal_id":"G0034.edec3797aba4469c886b252d28cb92a0","lv_publicatiedatum":"2019-04-10T15:29:30Z","plus_status":null,"plus_status_codespace":"http://www.geostandaarden.nl/imgeo/def/2.1#VoidReasonValue","plus_status_leeg":"geenWaarde","relatieve_hoogteligging":0,"status":"bestaand","status_codespace":"http://www.geostandaarden.nl/imgeo/def/2.1#Status","status_leeg":null,"termination_date":null,"termination_date_leeg":"geenWaarde","tijdstip_registratie":"2019-04-10T14:45:33Z","version":"7a2c69a7-852e-e7b9-b6e6-7667c4fd9e5e"},"geometry":{"type":"MultiPolygon","coordinates":[[[[150473.041,482869.891],[150459.752,482888.754],[150454.814,482885.276],[150468.103,482866.413],[150468.364,482866.597],[150467.789,482867.414],[150472.203,482870.524],[150472.779,482869.707],[150473.041,482869.891]]]]},"id":"82d2ed05-1af0-55bf-b736-d3d1808e123b"},{"type":"Feature","properties":{"bag_pnd":"0034100000112000","bronhouder":"G0034","creation_date":"2019-04-09T22:00:00Z","eind_registratie":"2020-07-23T09:39:25Z","in_onderzoek":null,"in_onderzoek_leeg":"geenWaarde","lokaal_id":"G0034.f76c11c7396b4bfb91b31ebdb293cbf2","lv_publicatiedatum":"2019-04-10T15:29:30Z","plus_status":null,"plus_status_codespace":"http://www.geostandaarden.nl/imgeo/def/2.1#VoidReasonValue","plus_status_leeg":"geenWaarde","relatieve_hoogteligging":0,"status":"bestaand","status_codespace":"http://www.geostandaarden.nl/imgeo/def/2.1#Status","status_leeg":null,"termination_date":null,"termination_date_leeg":"geenWaarde","tijdstip_registratie":"2019-04-10T14:45:33Z","version":"2239de0f-107d-4642-04ef-a9aeafe11933"},"geometry":{"type":"MultiPolygon","coordinates":[[[[150490.626,482899.051],[150493.725,482901.234],[150494.07,482900.744],[150495.051,482901.435],[150494.706,482901.925],[150497.73,482904.056],[150500.034,482900.786],[150508.7,482906.89],[150504.668,482912.613],[150500.581,482909.734],[150495.973,482916.274],[150489.515,482911.724],[150490.091,482910.907],[150484.695,482907.106],[150490.454,482898.93],[150490.626,482899.051]]]]},"id":"e75df8dc-25fc-59c6-b22c-645fb94735ff"},{"type":"Feature","properties":{"bag_pnd":"0034100000113533","bronhouder":"G0034","creation_date":"2019-10-20T22:00:00Z","eind_registratie":"2020-07-23T09:46:15Z","in_onderzoek":null,"in_onderzoek_leeg":"geenWaarde","lokaal_id":"G0034.ff10c8b0cdd849b4b45952f2c2fafc11","lv_publicatiedatum":"2019-10-21T16:42:31Z","plus_status":null,"plus_status_codespace":"http://www.geostandaarden.nl/imgeo/def/2.1#VoidReasonValue","plus_status_leeg":"geenWaarde","relatieve_hoogteligging":0,"status":"bestaand","status_codespace":"http://www.geostandaarden.nl/imgeo/def/2.1#Status","status_leeg":null,"termination_date":null,"termination_date_leeg":"geenWaarde","tijdstip_registratie":"2019-10-21T15:23:57Z","version":"a9bf5c64-dd9b-6d2b-c5df-f72d210910be"},"geometry":{"type":"MultiPolygon","coordinates":[[[[150389.94,482837.587],[150382.664,482832.462],[150388.279,482824.491],[150384.768,482820.794],[150389.807,482813.641],[150401.17,482821.646],[150400.94,482821.973],[150401.297,482823.203],[150399.684,482825.492],[150398.406,482825.57],[150392.704,482833.663],[150393.061,482834.893],[150391.449,482837.182],[150390.17,482837.26],[150389.94,482837.587]]]]},"id":"eff13ebf-b46d-58f3-8a8c-5df7df4b3106"},{"type":"Feature","properties":{"bag_pnd":"0034100000113378","bronhouder":"G0034","creation_date":"2019-04-09T22:00:00Z","eind_registratie":"2020-07-23T09:41:07Z","in_onderzoek":null,"in_onderzoek_leeg":"geenWaarde","lokaal_id":"G0034.edec3797aba4469c886b252d28cb92a0","lv_publicatiedatum":"2020-02-14T13:38:11Z","plus_status":null,"plus_status_codespace":"http://www.geostandaarden.nl/imgeo/def/2.1#VoidReasonValue","plus_status_leeg":"geenWaarde","relatieve_hoogteligging":0,"status":"bestaand","status_codespace":"http://www.geostandaarden.nl/imgeo/def/2.1#Status","status_leeg":null,"termination_date":null,"termination_date_leeg":"geenWaarde","tijdstip_registratie":"2020-02-14T13:33:41Z","version":"a82b5503-872b-6e8b-5972-d4747c4ab9e8"},"geometry":{"type":"MultiPolygon","coordinates":[[[[150473.041,482869.891],[150459.752,482888.754],[150454.814,482885.276],[150468.103,482866.413],[150468.364,482866.597],[150467.789,482867.414],[150472.203,482870.524],[150472.779,482869.707],[150473.041,482869.891]]]]},"id":"a312404d-bdd0-5f4c-adbf-b9ae4b442101"},{"type":"Feature","properties":{"bag_pnd":"0034100000111277","bronhouder":"G0034","creation_date":"2019-04-09T22:00:00Z","eind_registratie":null,"in_onderzoek":null,"in_onderzoek_leeg":"geenWaarde","lokaal_id":"G0034.0355af3576c644f1a959f815425e8986","lv_publicatiedatum":"2020-07-27T09:15:00Z","plus_status":null,"plus_status_codespace":"http://www.geostandaarden.nl/imgeo/def/2.1#VoidReasonValue","plus_status_leeg":"geenWaarde","relatieve_hoogteligging":0,"status":"bestaand","status_codespace":"http://www.geostandaarden.nl/imgeo/def/2.1#Status","status_leeg":null,"termination_date":null,"termination_date_leeg":"geenWaarde","tijdstip_registratie":"2020-07-27T06:58:40Z","version":"63b6fa6a-4994-3845-6759-dc1a481c333e"},"geometry":{"type":"MultiPolygon","coordinates":[[[[150311.532,482840.259],[150315.003,482841.05],[150317.784,482851.678],[150309.348,482853.885],[150309.581,482854.775],[150305.499,482855.844],[150305.732,482856.734],[150297.006,482859.017],[150295.834,482854.542],[150293.509,482851.92],[150294.195,482848.279],[150299.458,482846.902],[150299.225,482846.012],[150306.345,482844.148],[150306.112,482843.258],[150309.167,482842.459],[150311.532,482840.259]]]]},"id":"813da3b9-4f3f-504c-8e3e-e986505d58cb"},{"type":"Feature","properties":{"bag_pnd":"0034100000113114","bronhouder":"G0034","creation_date":"2019-04-09T22:00:00Z","eind_registratie":null,"in_onderzoek":null,"in_onderzoek_leeg":"geenWaarde","lokaal_id":"G0034.0ed56116d0d949489654896812704055","lv_publicatiedatum":"2020-07-23T10:47:21Z","plus_status":null,"plus_status_codespace":"http://www.geostandaarden.nl/imgeo/def/2.1#VoidReasonValue","plus_status_leeg":"geenWaarde","relatieve_hoogteligging":0,"status":"bestaand","status_codespace":"http://www.geostandaarden.nl/imgeo/def/2.1#Status","status_leeg":null,"termination_date":null,"termination_date_leeg":"geenWaarde","tijdstip_registratie":"2020-07-23T10:06:41Z","version":"5e8390bd-3d50-9cb0-9558-5d16f6865fce"},"geometry":{"type":"MultiPolygon","coordinates":[[[[150431.283,482910.547],[150429.771,482915.721],[150414.279,482911.195],[150416.649,482903.084],[150420.527,482904.217],[150420.238,482905.205],[150423.213,482906.075],[150422.925,482907.063],[150426.956,482908.241],[150426.676,482909.201],[150431.283,482910.547]]]]},"id":"d71874f3-6642-5b14-9cbf-101fdc08bdfb"},{"type":"Feature","properties":{"bag_pnd":"0034100000112212","bronhouder":"G0034","creation_date":"2019-04-09T22:00:00Z","eind_registratie":null,"in_onderzoek":null,"in_onderzoek_leeg":"geenWaarde","lokaal_id":"G0034.2e748e302844407ebd05d5af18444a29","lv_publicatiedatum":"2020-07-23T10:47:21Z","plus_status":null,"plus_status_codespace":"http://www.geostandaarden.nl/imgeo/def/2.1#VoidReasonValue","plus_status_leeg":"geenWaarde","relatieve_hoogteligging":0,"status":"bestaand","status_codespace":"http://www.geostandaarden.nl/imgeo/def/2.1#Status","status_leeg":null,"termination_date":null,"termination_date_leeg":"geenWaarde","tijdstip_registratie":"2020-07-23T09:41:51Z","version":"a9906bdb-3af7-da85-e4b9-0dfe34d917cd"},"geometry":{"type":"MultiPolygon","coordinates":[[[[150442.063,482870.958],[150438.793,482868.654],[150436.663,482871.679],[150427.997,482865.574],[150432.719,482858.871],[150441.058,482864.745],[150443.074,482861.884],[150446.671,482864.418],[150442.063,482870.958]]]]},"id":"91202e01-0330-5251-a057-ebe733873630"},{"type":"Feature","properties":{"bag_pnd":"0034100000112260","bronhouder":"G0034","creation_date":"2019-04-09T22:00:00Z","eind_registratie":null,"in_onderzoek":null,"in_onderzoek_leeg":"geenWaarde","lokaal_id":"G0034.3243ab2788f8464e837c434e8e6b72fd","lv_publicatiedatum":"2020-07-23T13:15:13Z","plus_status":null,"plus_status_codespace":"http://www.geostandaarden.nl/imgeo/def/2.1#VoidReasonValue","plus_status_leeg":"geenWaarde","relatieve_hoogteligging":0,"status":"bestaand","status_codespace":"http://www.geostandaarden.nl/imgeo/def/2.1#Status","status_leeg":null,"termination_date":null,"termination_date_leeg":"geenWaarde","tijdstip_registratie":"2020-07-23T12:59:07Z","version":"f76ea24d-180f-a9fd-147c-f4587f9877da"},"geometry":{"type":"MultiPolygon","coordinates":[[[[150314.339,482995.297],[150305.898,482990.62],[150307.74,482987.296],[150305.116,482985.842],[150308.605,482979.544],[150317.833,482984.657],[150314.518,482990.64],[150316.355,482991.658],[150314.339,482995.297]]]]},"id":"ca617806-71a5-56d8-8232-2eeae552a0e9"},{"type":"Feature","properties":{"bag_pnd":"0034100000111675","bronhouder":"G0034","creation_date":"2019-04-09T22:00:00Z","eind_registratie":null,"in_onderzoek":null,"in_onderzoek_leeg":"geenWaarde","lokaal_id":"G0034.73db9c36023c48d7853e77490a644431","lv_publicatiedatum":"2020-07-23T10:47:21Z","plus_status":null,"plus_status_codespace":"http://www.geostandaarden.nl/imgeo/def/2.1#VoidReasonValue","plus_status_leeg":"geenWaarde","relatieve_hoogteligging":0,"status":"bestaand","status_codespace":"http://www.geostandaarden.nl/imgeo/def/2.1#Status","status_leeg":null,"termination_date":null,"termination_date_leeg":"geenWaarde","tijdstip_registratie":"2020-07-23T09:52:12Z","version":"bf518b55-0698-dc9f-e896-b62a7f1d80b9"},"geometry":{"type":"MultiPolygon","coordinates":[[[[150344.507,482891.854],[150339.194,482888.111],[150349.56,482873.396],[150354.873,482877.138],[150344.507,482891.854]]]]},"id":"66568374-ca47-5924-925f-b34362961f6d"},{"type":"Feature","properties":{"bag_pnd":"0034100000110700","bronhouder":"G0034","creation_date":"2019-04-09T22:00:00Z","eind_registratie":null,"in_onderzoek":null,"in_onderzoek_leeg":"geenWaarde","lokaal_id":"G0034.752bd0c49ece449e8ff25e4ff7407758","lv_publicatiedatum":"2020-07-23T10:50:38Z","plus_status":null,"plus_status_codespace":"http://www.geostandaarden.nl/imgeo/def/2.1#VoidReasonValue","plus_status_leeg":"geenWaarde","relatieve_hoogteligging":0,"status":"bestaand","status_codespace":"http://www.geostandaarden.nl/imgeo/def/2.1#Status","status_leeg":null,"termination_date":null,"termination_date_leeg":"geenWaarde","tijdstip_registratie":"2020-07-23T09:53:09Z","version":"bd897444-ef8b-a513-cfa4-c0e2ff0eb733"},"geometry":{"type":"MultiPolygon","coordinates":[[[[150336.496,482901.441],[150333.617,482905.528],[150327.982,482901.559],[150334.034,482892.969],[150342.456,482898.902],[150339.284,482903.404],[150336.496,482901.441]]]]},"id":"af40699a-a52a-5f2a-81dc-fef7520fa82e"},{"type":"Feature","properties":{"bag_pnd":"0034100000111567","bronhouder":"G0034","creation_date":"2019-04-09T22:00:00Z","eind_registratie":null,"in_onderzoek":null,"in_onderzoek_leeg":"geenWaarde","lokaal_id":"G0034.8a8d3f27e1fe4aeca3e7f6015b828f71","lv_publicatiedatum":"2020-07-23T10:47:21Z","plus_status":null,"plus_status_codespace":"http://www.geostandaarden.nl/imgeo/def/2.1#VoidReasonValue","plus_status_leeg":"geenWaarde","relatieve_hoogteligging":0,"status":"bestaand","status_codespace":"http://www.geostandaarden.nl/imgeo/def/2.1#Status","status_leeg":null,"termination_date":null,"termination_date_leeg":"geenWaarde","tijdstip_registratie":"2020-07-23T10:04:08Z","version":"b809402c-0ae8-792d-a39f-1e7c5bb5dac9"},"geometry":{"type":"MultiPolygon","coordinates":[[[[150439.822,482991.303],[150440.619,482992.201],[150443.664,482989.498],[150447.846,482994.211],[150444.605,482997.086],[150445.354,482997.931],[150442.124,483000.797],[150441.375,482999.952],[150439.057,483002.009],[150434.079,482996.399],[150435.559,482995.086],[150434.53,482993.927],[150438.793,482990.144],[150439.822,482991.303]]]]},"id":"ceb7535e-3d25-53ed-a3fb-3e6a9fa05ea7"},{"type":"Feature","properties":{"bag_pnd":"0034100000111900","bronhouder":"G0034","creation_date":"2019-04-09T22:00:00Z","eind_registratie":null,"in_onderzoek":null,"in_onderzoek_leeg":"geenWaarde","lokaal_id":"G0034.8ac0cac370c049de96e1d57e462d58d0","lv_publicatiedatum":"2020-07-23T10:47:21Z","plus_status":null,"plus_status_codespace":"http://www.geostandaarden.nl/imgeo/def/2.1#VoidReasonValue","plus_status_leeg":"geenWaarde","relatieve_hoogteligging":0,"status":"bestaand","status_codespace":"http://www.geostandaarden.nl/imgeo/def/2.1#Status","status_leeg":null,"termination_date":null,"termination_date_leeg":"geenWaarde","tijdstip_registratie":"2020-07-23T10:03:39Z","version":"210656db-cee8-e44b-ae8e-d2f9d74ce39c"},"geometry":{"type":"MultiPolygon","coordinates":[[[[150443.667,483018.914],[150447.583,483015.805],[150442.919,483009.931],[150446.444,483007.133],[150449.864,483011.44],[150452.996,483008.953],[150456.217,483013.01],[150455.042,483013.943],[150458.039,483017.718],[150448.641,483025.179],[150443.667,483018.914]]]]},"id":"7b4ba95b-d323-53f0-b640-b84b06e0530f"},{"type":"Feature","properties":{"bag_pnd":"0034100000112807","bronhouder":"G0034","creation_date":"2019-04-09T22:00:00Z","eind_registratie":null,"in_onderzoek":null,"in_onderzoek_leeg":"geenWaarde","lokaal_id":"G0034.99ba0318008d4ddaa9efe69d607081b4","lv_publicatiedatum":"2020-07-23T10:47:21Z","plus_status":null,"plus_status_codespace":"http://www.geostandaarden.nl/imgeo/def/2.1#VoidReasonValue","plus_status_leeg":"geenWaarde","relatieve_hoogteligging":0,"status":"bestaand","status_codespace":"http://www.geostandaarden.nl/imgeo/def/2.1#Status","status_leeg":null,"termination_date":null,"termination_date_leeg":"geenWaarde","tijdstip_registratie":"2020-07-23T10:06:10Z","version":"152b322a-2801-35cc-1df5-5a30ad356bfd"},"geometry":{"type":"MultiPolygon","coordinates":[[[[150377.629,482926.764],[150375.819,482925.945],[150375.58,482926.472],[150375.898,482926.616],[150374.579,482929.531],[150374.261,482929.388],[150373.306,482931.5],[150368.718,482929.424],[150373.307,482919.281],[150384.56,482924.372],[150384.043,482925.515],[150384.278,482925.622],[150382.815,482928.856],[150382.58,482928.75],[150382.485,482928.96],[150381.444,482928.489],[150381.432,482928.516],[150381.325,482928.753],[150377.51,482927.027],[150377.617,482926.79],[150377.629,482926.764]]]]},"id":"c6fd564f-c1c1-5fd8-b0d5-e5d0b8d65fea"},{"type":"Feature","properties":{"bag_pnd":"0034100000110755","bronhouder":"G0034","creation_date":"2019-04-09T22:00:00Z","eind_registratie":null,"in_onderzoek":null,"in_onderzoek_leeg":"geenWaarde","lokaal_id":"G0034.afae839a70d64e7f8ad20c09d450259e","lv_publicatiedatum":"2020-07-23T10:50:38Z","plus_status":null,"plus_status_codespace":"http://www.geostandaarden.nl/imgeo/def/2.1#VoidReasonValue","plus_status_leeg":"geenWaarde","relatieve_hoogteligging":0,"status":"bestaand","status_codespace":"http://www.geostandaarden.nl/imgeo/def/2.1#Status","status_leeg":null,"termination_date":null,"termination_date_leeg":"geenWaarde","tijdstip_registratie":"2020-07-23T10:05:33Z","version":"c4e97b5b-0764-1d91-49af-d08a3d59acdf"},"geometry":{"type":"MultiPolygon","coordinates":[[[[150394.496,482957.177],[150397.109,482954.986],[150400.635,482959.19],[150398.023,482961.382],[150402.842,482967.128],[150397.577,482971.544],[150386.018,482957.762],[150391.283,482953.346],[150394.496,482957.177]]]]},"id":"c7fd1f08-378f-5ae3-883c-bbb38cda2db5"},{"type":"Feature","properties":{"bag_pnd":"0034100000112594","bronhouder":"G0034","creation_date":"2019-04-09T22:00:00Z","eind_registratie":null,"in_onderzoek":null,"in_onderzoek_leeg":"geenWaarde","lokaal_id":"G0034.b65192afcde44777a4f64e575d83403c","lv_publicatiedatum":"2020-07-23T10:47:21Z","plus_status":null,"plus_status_codespace":"http://www.geostandaarden.nl/imgeo/def/2.1#VoidReasonValue","plus_status_leeg":"geenWaarde","relatieve_hoogteligging":0,"status":"bestaand","status_codespace":"http://www.geostandaarden.nl/imgeo/def/2.1#Status","status_leeg":null,"termination_date":null,"termination_date_leeg":"geenWaarde","tijdstip_registratie":"2020-07-23T09:45:36Z","version":"3d1c83e2-8e96-389d-c88d-dacd62154a7b"},"geometry":{"type":"MultiPolygon","coordinates":[[[[150425.844,482847.516],[150416.157,482861.267],[150409.11,482856.302],[150418.797,482842.552],[150425.844,482847.516]]]]},"id":"851eff17-155e-540f-9c12-a8efa1549e75"},{"type":"Feature","properties":{"bag_pnd":"0034100000113170","bronhouder":"G0034","creation_date":"2019-04-09T22:00:00Z","eind_registratie":null,"in_onderzoek":null,"in_onderzoek_leeg":"geenWaarde","lokaal_id":"G0034.b82edd6822a5445095b6ec6a7ac21b4c","lv_publicatiedatum":"2020-07-23T10:47:21Z","plus_status":null,"plus_status_codespace":"http://www.geostandaarden.nl/imgeo/def/2.1#VoidReasonValue","plus_status_leeg":"geenWaarde","relatieve_hoogteligging":0,"status":"bestaand","status_codespace":"http://www.geostandaarden.nl/imgeo/def/2.1#Status","status_leeg":null,"termination_date":null,"termination_date_leeg":"geenWaarde","tijdstip_registratie":"2020-07-23T10:07:57Z","version":"18412a06-250a-9544-2757-cf6b05132667"},"geometry":{"type":"MultiPolygon","coordinates":[[[[150398.119,482896.954],[150398.187,482898.278],[150400.484,482898.161],[150400.47,482897.892],[150400.473,482897.828],[150400.488,482897.767],[150400.516,482897.709],[150400.553,482897.658],[150400.601,482897.615],[150400.655,482897.582],[150400.715,482897.56],[150400.778,482897.551],[150401.078,482897.536],[150401.134,482897.538],[150401.19,482897.55],[150401.242,482897.571],[150401.29,482897.601],[150401.332,482897.639],[150401.367,482897.684],[150401.394,482897.734],[150401.411,482897.788],[150401.419,482897.844],[150401.433,482898.113],[150402.016,482909.574],[150402.019,482909.629],[150402.016,482909.692],[150402,482909.754],[150401.973,482909.812],[150401.935,482909.863],[150401.888,482909.906],[150401.834,482909.939],[150401.774,482909.96],[150401.711,482909.97],[150401.411,482909.985],[150401.347,482909.982],[150401.285,482909.967],[150401.228,482909.939],[150401.177,482909.902],[150401.134,482909.854],[150401.101,482909.8],[150401.079,482909.74],[150401.07,482909.677],[150401.057,482909.432],[150396.878,482909.645],[150396.67,482905.56],[150392.186,482905.788],[150392.403,482910.063],[150387.11,482910.332],[150386.913,482906.462],[150384.716,482906.574],[150384.652,482906.571],[150384.591,482906.556],[150384.533,482906.529],[150384.482,482906.491],[150384.439,482906.444],[150384.406,482906.389],[150384.384,482906.329],[150384.375,482906.266],[150383.994,482898.776],[150383.996,482898.719],[150384.008,482898.664],[150384.029,482898.611],[150384.059,482898.563],[150384.097,482898.521],[150384.142,482898.486],[150384.192,482898.46],[150384.246,482898.442],[150384.302,482898.435],[150387.123,482898.291],[150387.151,482898.839],[150389.848,482898.702],[150389.78,482897.379],[150389.783,482897.315],[150389.799,482897.253],[150389.826,482897.196],[150389.864,482897.144],[150389.911,482897.102],[150389.965,482897.069],[150390.025,482897.047],[150390.088,482897.038],[150397.778,482896.646],[150397.835,482896.648],[150397.89,482896.66],[150397.943,482896.682],[150397.991,482896.712],[150398.033,482896.75],[150398.068,482896.794],[150398.094,482896.844],[150398.112,482896.898],[150398.119,482896.954]]]]},"id":"15ec2b87-5d85-5c8f-9f39-3435990ed4ff"},{"type":"Feature","properties":{"bag_pnd":"0034100000110077","bronhouder":"G0034","creation_date":"2019-04-09T22:00:00Z","eind_registratie":null,"in_onderzoek":null,"in_onderzoek_leeg":"geenWaarde","lokaal_id":"G0034.c6618b29f2e047ea9aa5125917680077","lv_publicatiedatum":"2020-07-23T10:47:21Z","plus_status":null,"plus_status_codespace":"http://www.geostandaarden.nl/imgeo/def/2.1#VoidReasonValue","plus_status_leeg":"geenWaarde","relatieve_hoogteligging":0,"status":"bestaand","status_codespace":"http://www.geostandaarden.nl/imgeo/def/2.1#Status","status_leeg":null,"termination_date":null,"termination_date_leeg":"geenWaarde","tijdstip_registratie":"2020-07-23T09:54:17Z","version":"44e6d130-46dc-29d6-6e6d-a88dd2b7803d"},"geometry":{"type":"MultiPolygon","coordinates":[[[[150290.033,482929.246],[150289.947,482929.369],[150296.06,482933.676],[150296.146,482933.553],[150302.09,482937.74],[150296.755,482945.315],[150284.369,482936.59],[150289.705,482929.015],[150290.033,482929.246]]]]},"id":"c3ed6c01-6c76-5714-adf7-2cb390382fc5"},{"type":"Feature","properties":{"bag_pnd":"0034100000111606","bronhouder":"G0034","creation_date":"2019-04-09T22:00:00Z","eind_registratie":null,"in_onderzoek":null,"in_onderzoek_leeg":"geenWaarde","lokaal_id":"G0034.df000ff1d5fc4ec5831b93cabd5dd86f","lv_publicatiedatum":"2020-07-23T10:47:21Z","plus_status":null,"plus_status_codespace":"http://www.geostandaarden.nl/imgeo/def/2.1#VoidReasonValue","plus_status_leeg":"geenWaarde","relatieve_hoogteligging":0,"status":"bestaand","status_codespace":"http://www.geostandaarden.nl/imgeo/def/2.1#Status","status_leeg":null,"termination_date":null,"termination_date_leeg":"geenWaarde","tijdstip_registratie":"2020-07-23T10:05:03Z","version":"1c49a494-2a3e-2849-860f-39be0adae114"},"geometry":{"type":"MultiPolygon","coordinates":[[[[150414.397,482988.4],[150414.34,482988.477],[150414.137,482988.327],[150413.988,482988.53],[150413.912,482988.474],[150414.061,482988.271],[150405.277,482981.81],[150405.128,482982.013],[150405.051,482981.957],[150405.201,482981.754],[150404.998,482981.605],[150405.054,482981.528],[150405.257,482981.678],[150410.533,482974.505],[150410.33,482974.355],[150410.386,482974.279],[150410.589,482974.428],[150410.738,482974.225],[150410.815,482974.282],[150410.665,482974.485],[150419.449,482980.945],[150419.599,482980.742],[150419.675,482980.799],[150419.526,482981.002],[150419.729,482981.151],[150419.672,482981.227],[150419.469,482981.078],[150414.194,482988.251],[150414.397,482988.4]]]]},"id":"5268a8cf-0771-5931-82dc-d48f463c7343"},{"type":"Feature","properties":{"bag_pnd":"0034100000110837","bronhouder":"G0034","creation_date":"2019-04-09T22:00:00Z","eind_registratie":null,"in_onderzoek":null,"in_onderzoek_leeg":"geenWaarde","lokaal_id":"G0034.e6fb66ca54934ab092fef56a5c2c07d0","lv_publicatiedatum":"2020-07-23T10:47:21Z","plus_status":null,"plus_status_codespace":"http://www.geostandaarden.nl/imgeo/def/2.1#VoidReasonValue","plus_status_leeg":"geenWaarde","relatieve_hoogteligging":0,"status":"bestaand","status_codespace":"http://www.geostandaarden.nl/imgeo/def/2.1#Status","status_leeg":null,"termination_date":null,"termination_date_leeg":"geenWaarde","tijdstip_registratie":"2020-07-23T09:50:56Z","version":"58e1b530-a8ae-5826-1ce0-e7abea7aabac"},"geometry":{"type":"MultiPolygon","coordinates":[[[[150368.219,482863.91],[150364.188,482869.633],[150360.574,482867.087],[150358.27,482870.357],[150352.074,482865.992],[150358.409,482856.999],[150368.219,482863.91]]]]},"id":"63d0fa89-e0e6-5bc5-b128-912035b2d258"},{"type":"Feature","properties":{"bag_pnd":"0034100000113378","bronhouder":"G0034","creation_date":"2019-04-09T22:00:00Z","eind_registratie":null,"in_onderzoek":null,"in_onderzoek_leeg":"geenWaarde","lokaal_id":"G0034.edec3797aba4469c886b252d28cb92a0","lv_publicatiedatum":"2020-07-23T10:47:21Z","plus_status":null,"plus_status_codespace":"http://www.geostandaarden.nl/imgeo/def/2.1#VoidReasonValue","plus_status_leeg":"geenWaarde","relatieve_hoogteligging":0,"status":"bestaand","status_codespace":"http://www.geostandaarden.nl/imgeo/def/2.1#Status","status_leeg":null,"termination_date":null,"termination_date_leeg":"geenWaarde","tijdstip_registratie":"2020-07-23T09:41:07Z","version":"877c6847-ba19-f8e2-680f-51c0ca406f93"},"geometry":{"type":"MultiPolygon","coordinates":[[[[150473.041,482869.891],[150459.752,482888.754],[150454.814,482885.276],[150468.103,482866.413],[150468.364,482866.597],[150467.789,482867.414],[150472.203,482870.524],[150472.779,482869.707],[150473.041,482869.891]]]]},"id":"cad6e4bf-71cc-58c5-afc9-9a7fb12e146f"},{"type":"Feature","properties":{"bag_pnd":"0034100000112000","bronhouder":"G0034","creation_date":"2019-04-09T22:00:00Z","eind_registratie":null,"in_onderzoek":null,"in_onderzoek_leeg":"geenWaarde","lokaal_id":"G0034.f76c11c7396b4bfb91b31ebdb293cbf2","lv_publicatiedatum":"2020-07-23T10:47:21Z","plus_status":null,"plus_status_codespace":"http://www.geostandaarden.nl/imgeo/def/2.1#VoidReasonValue","plus_status_leeg":"geenWaarde","relatieve_hoogteligging":0,"status":"bestaand","status_codespace":"http://www.geostandaarden.nl/imgeo/def/2.1#Status","status_leeg":null,"termination_date":null,"termination_date_leeg":"geenWaarde","tijdstip_registratie":"2020-07-23T09:39:25Z","version":"3823eded-5da2-b9c2-ca80-fd7649cad955"},"geometry":{"type":"MultiPolygon","coordinates":[[[[150490.626,482899.051],[150493.725,482901.234],[150494.07,482900.744],[150495.051,482901.435],[150494.706,482901.925],[150497.73,482904.056],[150500.034,482900.786],[150508.7,482906.89],[150504.668,482912.613],[150500.581,482909.734],[150495.973,482916.274],[150489.515,482911.724],[150490.091,482910.907],[150484.695,482907.106],[150490.454,482898.93],[150490.626,482899.051]]]]},"id":"200aba92-4ba7-5049-9d41-e75cce8f5a07"},{"type":"Feature","properties":{"bag_pnd":"0034100000114876","bronhouder":"G0034","creation_date":"2020-07-22T22:00:00Z","eind_registratie":"2020-07-23T12:46:06Z","in_onderzoek":null,"in_onderzoek_leeg":"geenWaarde","lokaal_id":"G0034.f8f4a62b30284a11bfb28de3745f6a84","lv_publicatiedatum":"2020-07-23T12:13:34Z","plus_status":null,"plus_status_codespace":"http://www.geostandaarden.nl/imgeo/def/2.1#VoidReasonValue","plus_status_leeg":"geenWaarde","relatieve_hoogteligging":0,"status":"bestaand","status_codespace":"http://www.geostandaarden.nl/imgeo/def/2.1#Status","status_leeg":null,"termination_date":null,"termination_date_leeg":"geenWaarde","tijdstip_registratie":"2020-07-23T12:07:52Z","version":"dc923c66-0a39-5936-428f-498ecb54b404"},"geometry":{"type":"MultiPolygon","coordinates":[[[[150474.067,482942.242],[150478.941,482946.542],[150475.336,482950.629],[150477.886,482952.878],[150473.619,482957.716],[150466.195,482951.167],[150474.067,482942.242]]]]},"id":"f6cb2e1a-a873-59fc-8689-5dd09503950e"},{"type":"Feature","properties":{"bag_pnd":"0034100000114876","bronhouder":"G0034","creation_date":"2020-07-22T22:00:00Z","eind_registratie":null,"in_onderzoek":null,"in_onderzoek_leeg":"geenWaarde","lokaal_id":"G0034.f8f4a62b30284a11bfb28de3745f6a84","lv_publicatiedatum":"2020-07-23T13:03:45Z","plus_status":null,"plus_status_codespace":"http://www.geostandaarden.nl/imgeo/def/2.1#VoidReasonValue","plus_status_leeg":"geenWaarde","relatieve_hoogteligging":0,"status":"bestaand","status_codespace":"http://www.geostandaarden.nl/imgeo/def/2.1#Status","status_leeg":null,"termination_date":null,"termination_date_leeg":"geenWaarde","tijdstip_registratie":"2020-07-23T12:46:06Z","version":"44cf8cc6-6e81-a498-d006-35f6eef9051c"},"geometry":{"type":"MultiPolygon","coordinates":[[[[150474.067,482942.242],[150478.941,482946.542],[150475.336,482950.629],[150477.886,482952.878],[150473.619,482957.716],[150466.195,482951.167],[150474.067,482942.242]]]]},"id":"b49a9665-9445-50e8-a5e1-88060cedbe64"},{"type":"Feature","properties":{"bag_pnd":"0034100000110297","bronhouder":"G0034","creation_date":"2019-04-09T22:00:00Z","eind_registratie":"2023-06-02T10:23:55Z","in_onderzoek":null,"in_onderzoek_leeg":"geenWaarde","lokaal_id":"G0034.b9fb2f732d484613b8546d3efa7fae47","lv_publicatiedatum":"2020-07-23T10:47:21Z","plus_status":null,"plus_status_codespace":"http://www.geostandaarden.nl/imgeo/def/2.1#VoidReasonValue","plus_status_leeg":"geenWaarde","relatieve_hoogteligging":0,"status":"bestaand","status_codespace":"http://www.geostandaarden.nl/imgeo/def/2.1#Status","status_leeg":null,"termination_date":null,"termination_date_leeg":"geenWaarde","tijdstip_registratie":"2020-07-23T09:47:40Z","version":"e97af869-2468-bc8b-7766-35351ef4188a"},"geometry":{"type":"MultiPolygon","coordinates":[[[[150379.04,482843.519],[150378.457,482851.026],[150367.36,482850.164],[150367.944,482842.657],[150379.04,482843.519]]]]},"id":"648dbf97-992b-5e4a-bace-940378148bb3"},{"type":"Feature","properties":{"bag_pnd":"0034100000118499","bronhouder":"G0034","creation_date":"2023-06-01T22:00:00Z","eind_registratie":null,"in_onderzoek":null,"in_onderzoek_leeg":"geenWaarde","lokaal_id":"G0034.7330d93905a243519b8f55286c28df78","lv_publicatiedatum":"2023-06-02T10:28:23Z","plus_status":null,"plus_status_codespace":"http://www.geostandaarden.nl/imgeo/def/2.1#VoidReasonValue","plus_status_leeg":"geenWaarde","relatieve_hoogteligging":0,"status":"bestaand","status_codespace":"http://www.geostandaarden.nl/imgeo/def/2.1#Status","status_leeg":null,"termination_date":null,"termination_date_leeg":"geenWaarde","tijdstip_registratie":"2023-06-02T10:24:09Z","version":"8e942658-d446-b580-8674-42b29fce378d"},"geometry":{"type":"MultiPolygon","coordinates":[[[[150340.759,482860.476],[150342.992,482857.307],[150349.455,482861.86],[150347.222,482865.029],[150340.759,482860.476]]]]},"id":"3b8af1d1-6d85-5a59-93d7-f798067c1781"},{"type":"Feature","properties":{"bag_pnd":"0034100000115129","bronhouder":"G0034","creation_date":"2023-06-01T22:00:00Z","eind_registratie":"2023-06-02T10:44:10Z","in_onderzoek":null,"in_onderzoek_leeg":"geenWaarde","lokaal_id":"G0034.f75e1b7333ed43ec85ed49d9259ba685","lv_publicatiedatum":"2023-06-02T10:28:23Z","plus_status":null,"plus_status_codespace":"http://www.geostandaarden.nl/imgeo/def/2.1#VoidReasonValue","plus_status_leeg":"geenWaarde","relatieve_hoogteligging":0,"status":"bestaand","status_codespace":"http://www.geostandaarden.nl/imgeo/def/2.1#Status","status_leeg":null,"termination_date":null,"termination_date_leeg":"geenWaarde","tijdstip_registratie":"2023-06-02T10:24:07Z","version":"c3abaf25-6c31-4d1e-39c3-29d17664b09e"},"geometry":{"type":"MultiPolygon","coordinates":[[[[150472.375,482896.715],[150478.57,482887.922],[150486.382,482893.425],[150480.188,482902.218],[150472.375,482896.715]]]]},"id":"19562432-1d04-5e54-a2db-752d82219c98"},{"type":"Feature","properties":{"bag_pnd":"0034100000115129","bronhouder":"G0034","creation_date":"2023-06-01T22:00:00Z","eind_registratie":null,"in_onderzoek":null,"in_onderzoek_leeg":"geenWaarde","lokaal_id":"G0034.f75e1b7333ed43ec85ed49d9259ba685","lv_publicatiedatum":"2023-06-02T12:10:49Z","plus_status":null,"plus_status_codespace":"http://www.geostandaarden.nl/imgeo/def/2.1#VoidReasonValue","plus_status_leeg":"geenWaarde","relatieve_hoogteligging":0,"status":"bestaand","status_codespace":"http://www.geostandaarden.nl/imgeo/def/2.1#Status","status_leeg":null,"termination_date":null,"termination_date_leeg":"geenWaarde","tijdstip_registratie":"2023-06-02T10:44:10Z","version":"0b4418af-dc74-f6df-e466-100ea6947b02"},"geometry":{"type":"MultiPolygon","coordinates":[[[[150472.375,482896.715],[150478.57,482887.922],[150486.382,482893.425],[150480.188,482902.218],[150472.375,482896.715]]]]},"id":"3847a280-d610-59f1-bd19-ea636dd55e6c"},{"type":"Feature","properties":{"bag_pnd":"0034100000115844","bronhouder":"G0034","creation_date":"2023-06-01T22:00:00Z","eind_registratie":"2023-06-02T12:08:58Z","in_onderzoek":null,"in_onderzoek_leeg":"geenWaarde","lokaal_id":"G0034.fb964e6ad5dd439e814e271bc129e039","lv_publicatiedatum":"2023-06-02T10:28:23Z","plus_status":null,"plus_status_codespace":"http://www.geostandaarden.nl/imgeo/def/2.1#VoidReasonValue","plus_status_leeg":"geenWaarde","relatieve_hoogteligging":0,"status":"bestaand","status_codespace":"http://www.geostandaarden.nl/imgeo/def/2.1#Status","status_leeg":null,"termination_date":null,"termination_date_leeg":"geenWaarde","tijdstip_registratie":"2023-06-02T10:24:08Z","version":"6dab649f-6471-0af3-b691-ed11e4ecd119"},"geometry":{"type":"MultiPolygon","coordinates":[[[[150474.461,482829.99],[150482.827,482830.746],[150482.804,482830.99],[150482.703,482830.981],[150482.379,482834.567],[150482.481,482834.576],[150482.459,482834.82],[150474.093,482834.064],[150474.115,482833.82],[150474.214,482833.829],[150474.538,482830.243],[150474.439,482830.234],[150474.461,482829.99]]]]},"id":"4382d4c3-9c01-59fb-8b03-a59dd5649dc1"},{"type":"Feature","properties":{"bag_pnd":"0034100000112794","bronhouder":"G0034","creation_date":"2019-04-09T22:00:00Z","eind_registratie":"2023-07-04T12:31:26Z","in_onderzoek":null,"in_onderzoek_leeg":"geenWaarde","lokaal_id":"G0034.0a6a452511be4a82bd0a7e741f069792","lv_publicatiedatum":"2020-07-23T10:47:21Z","plus_status":null,"plus_status_codespace":"http://www.geostandaarden.nl/imgeo/def/2.1#VoidReasonValue","plus_status_leeg":"geenWaarde","relatieve_hoogteligging":0,"status":"bestaand","status_codespace":"http://www.geostandaarden.nl/imgeo/def/2.1#Status","status_leeg":null,"termination_date":"2023-07-03T22:00:00Z","termination_date_leeg":null,"tijdstip_registratie":"2020-07-23T10:08:35Z","version":"106b8c2f-2250-9cb6-f9c8-1b6a3881978d"},"geometry":{"type":"MultiPolygon","coordinates":[[[[150507.3,482963.543],[150500.071,482972.38],[150498.677,482972.901],[150497.211,482972.66],[150496.061,482971.719],[150495.537,482970.328],[150495.774,482968.859],[150496.386,482968.111],[150497.657,482966.561],[150491.082,482961.173],[150492.73,482959.162],[150490.951,482957.704],[150494.656,482953.183],[150503.01,482960.028],[150503.644,482959.254],[150507.934,482962.769],[150507.3,482963.543]]]]},"id":"3a9d7045-1782-573f-9536-d1c88e00cbe3"},{"type":"Feature","properties":{"bag_pnd":"0034100000112794","bronhouder":"G0034","creation_date":"2019-04-09T22:00:00Z","eind_registratie":"2023-07-04T12:31:26Z","in_onderzoek":null,"in_onderzoek_leeg":"geenWaarde","lokaal_id":"G0034.0a6a452511be4a82bd0a7e741f069792","lv_publicatiedatum":"2023-07-04T12:42:19Z","plus_status":null,"plus_status_codespace":"http://www.geostandaarden.nl/imgeo/def/2.1#VoidReasonValue","plus_status_leeg":"geenWaarde","relatieve_hoogteligging":0,"status":"bestaand","status_codespace":"http://www.geostandaarden.nl/imgeo/def/2.1#Status","status_leeg":null,"termination_date":"2023-07-03T22:00:00Z","termination_date_leeg":null,"tijdstip_registratie":"2020-07-23T10:08:35Z","version":"1d42d2ed-d293-5b0b-2c7c-9fdfe81ab314"},"geometry":{"type":"MultiPolygon","coordinates":[[[[150507.3,482963.543],[150500.071,482972.38],[150498.677,482972.901],[150497.211,482972.66],[150496.061,482971.719],[150495.537,482970.328],[150495.774,482968.859],[150496.386,482968.111],[150497.657,482966.561],[150491.082,482961.173],[150492.73,482959.162],[150490.951,482957.704],[150494.656,482953.183],[150503.01,482960.028],[150503.644,482959.254],[150507.934,482962.769],[150507.3,482963.543]]]]},"id":"70792533-ddea-5ba0-8730-3c4d1eead16a"},{"type":"Feature","properties":{"bag_pnd":"0034100000115792","bronhouder":"G0034","creation_date":"2023-07-03T22:00:00Z","eind_registratie":null,"in_onderzoek":null,"in_onderzoek_leeg":"geenWaarde","lokaal_id":"G0034.7728562870e2481b8384ef25fcf8b2a7","lv_publicatiedatum":"2023-07-04T12:42:19Z","plus_status":null,"plus_status_codespace":"http://www.geostandaarden.nl/imgeo/def/2.1#VoidReasonValue","plus_status_leeg":"geenWaarde","relatieve_hoogteligging":0,"status":"bestaand","status_codespace":"http://www.geostandaarden.nl/imgeo/def/2.1#Status","status_leeg":null,"termination_date":null,"termination_date_leeg":"geenWaarde","tijdstip_registratie":"2023-07-04T12:32:37Z","version":"ed02e095-63f8-d235-96b2-74fec9f48466"},"geometry":{"type":"MultiPolygon","coordinates":[[[[150492.52,482961.565],[150496.678,482956.79],[150507.904,482966.565],[150503.746,482971.34],[150492.52,482961.565]]]]},"id":"c26c9164-2039-5be2-8399-91167243ad50"},{"type":"Feature","properties":{"bag_pnd":"0034100000131868","bronhouder":"G0034","creation_date":"2024-09-29T22:00:00Z","eind_registratie":null,"in_onderzoek":null,"in_onderzoek_leeg":"geenWaarde","lokaal_id":"G0034.a328cac23afe4b7c9cade85e930ef2ad","lv_publicatiedatum":"2024-09-30T13:15:46Z","plus_status":null,"plus_status_codespace":"http://www.geostandaarden.nl/imgeo/def/2.1#VoidReasonValue","plus_status_leeg":"geenWaarde","relatieve_hoogteligging":0,"status":"bestaand","status_codespace":"http://www.geostandaarden.nl/imgeo/def/2.1#Status","status_leeg":null,"termination_date":null,"termination_date_leeg":"geenWaarde","tijdstip_registratie":"2024-09-30T13:11:30Z","version":"5293cd9f-984a-8c5d-fe7b-4818db77ee32"},"geometry":{"type":"MultiPolygon","coordinates":[[[[150478.922,482842.829],[150474.934,482848.791],[150470.621,482845.906],[150474.609,482839.944],[150478.922,482842.829]]]]},"id":"629b3f19-61af-5433-8357-44496fea7895"},{"type":"Feature","properties":{"bag_pnd":"0034100000141110","bronhouder":"G0034","creation_date":"2026-06-08T22:00:00Z","eind_registratie":null,"in_onderzoek":null,"in_onderzoek_leeg":"geenWaarde","lokaal_id":"G0034.08e519ffc1f842d3a01967e13f0cfb19","lv_publicatiedatum":"2026-06-09T13:21:11Z","plus_status":null,"plus_status_codespace":"http://www.geostandaarden.nl/imgeo/def/2.1#VoidReasonValue","plus_status_leeg":"geenWaarde","relatieve_hoogteligging":0,"status":"bestaand","status_codespace":"http://www.geostandaarden.nl/imgeo/def/2.1#Status","status_leeg":null,"termination_date":null,"termination_date_leeg":"geenWaarde","tijdstip_registratie":"2026-06-09T13:16:13Z","version":"cec9e039-876a-4cb5-e379-f22fa029f1fa"},"geometry":{"type":"MultiPolygon","coordinates":[[[[150424.46,482989.887],[150429.348,482985.742],[150431.572,482988.366],[150426.684,482992.51],[150424.46,482989.887]]]]},"id":"d1f57e55-75a7-501e-9fc7-1b37872ceeb5"},{"type":"Feature","properties":{"bag_pnd":"0034100000141542","bronhouder":"G0034","creation_date":"2026-06-08T22:00:00Z","eind_registratie":null,"in_onderzoek":null,"in_onderzoek_leeg":"geenWaarde","lokaal_id":"G0034.2aadc910391b4ee592da8cf5d886a496","lv_publicatiedatum":"2026-06-09T13:21:11Z","plus_status":null,"plus_status_codespace":"http://www.geostandaarden.nl/imgeo/def/2.1#VoidReasonValue","plus_status_leeg":"geenWaarde","relatieve_hoogteligging":0,"status":"bestaand","status_codespace":"http://www.geostandaarden.nl/imgeo/def/2.1#Status","status_leeg":null,"termination_date":null,"termination_date_leeg":"geenWaarde","tijdstip_registratie":"2026-06-09T13:16:17Z","version":"74af27c9-1922-c66a-5b30-2060d68a6967"},"geometry":{"type":"MultiPolygon","coordinates":[[[[150470.233,482884.259],[150473.456,482886.485],[150471.066,482889.944],[150467.843,482887.718],[150470.233,482884.259]]]]},"id":"bf268824-1346-51f7-b64f-25b55ac02230"},{"type":"Feature","properties":{"bag_pnd":"0034100000111568","bronhouder":"G0034","creation_date":"2019-04-09T22:00:00Z","eind_registratie":"2026-06-09T13:16:31Z","in_onderzoek":null,"in_onderzoek_leeg":"geenWaarde","lokaal_id":"G0034.3bdeed1e511d4b359979eb4d3826d67e","lv_publicatiedatum":"2019-04-10T15:29:30Z","plus_status":null,"plus_status_codespace":"http://www.geostandaarden.nl/imgeo/def/2.1#VoidReasonValue","plus_status_leeg":"geenWaarde","relatieve_hoogteligging":0,"status":"bestaand","status_codespace":"http://www.geostandaarden.nl/imgeo/def/2.1#Status","status_leeg":null,"termination_date":"2026-06-08T22:00:00Z","termination_date_leeg":null,"tijdstip_registratie":"2019-04-10T14:46:43Z","version":"b0451faa-f0c2-4efb-c34a-d95cad888f54"},"geometry":{"type":"MultiPolygon","coordinates":[[[[150437.335,482988.501],[150435.761,482989.897],[150432.443,482986.157],[150434.017,482984.761],[150437.335,482988.501]]]]},"id":"7a696901-1d30-547e-bece-1ac38265254f"},{"type":"Feature","properties":{"bag_pnd":"0034100000111568","bronhouder":"G0034","creation_date":"2019-04-09T22:00:00Z","eind_registratie":"2026-06-09T13:16:31Z","in_onderzoek":null,"in_onderzoek_leeg":"geenWaarde","lokaal_id":"G0034.3bdeed1e511d4b359979eb4d3826d67e","lv_publicatiedatum":"2026-06-09T13:21:11Z","plus_status":null,"plus_status_codespace":"http://www.geostandaarden.nl/imgeo/def/2.1#VoidReasonValue","plus_status_leeg":"geenWaarde","relatieve_hoogteligging":0,"status":"bestaand","status_codespace":"http://www.geostandaarden.nl/imgeo/def/2.1#Status","status_leeg":null,"termination_date":"2026-06-08T22:00:00Z","termination_date_leeg":null,"tijdstip_registratie":"2019-04-10T14:46:43Z","version":"93b0a2e9-a787-3c04-4ef4-5bfd45f08213"},"geometry":{"type":"MultiPolygon","coordinates":[[[[150437.335,482988.501],[150435.761,482989.897],[150432.443,482986.157],[150434.017,482984.761],[150437.335,482988.501]]]]},"id":"19e8ebd3-0e30-50c3-984d-2b08ad1299b1"},{"type":"Feature","properties":{"bag_pnd":"0034100000141096","bronhouder":"G0034","creation_date":"2026-06-08T22:00:00Z","eind_registratie":null,"in_onderzoek":null,"in_onderzoek_leeg":"geenWaarde","lokaal_id":"G0034.46783bc56ca34050a043bb246275a640","lv_publicatiedatum":"2026-06-09T13:21:11Z","plus_status":null,"plus_status_codespace":"http://www.geostandaarden.nl/imgeo/def/2.1#VoidReasonValue","plus_status_leeg":"geenWaarde","relatieve_hoogteligging":0,"status":"bestaand","status_codespace":"http://www.geostandaarden.nl/imgeo/def/2.1#Status","status_leeg":null,"termination_date":null,"termination_date_leeg":"geenWaarde","tijdstip_registratie":"2026-06-09T13:16:15Z","version":"2201d1b5-c29e-0039-de4b-a1fb06c2b5e1"},"geometry":{"type":"MultiPolygon","coordinates":[[[[150272.062,482853.846],[150273.475,482851.882],[150273.708,482852.049],[150274.529,482850.908],[150284.542,482858.115],[150282.016,482861.624],[150279.254,482859.637],[150279.546,482859.232],[150272.062,482853.846]]]]},"id":"a4fb10cd-70ed-5b2c-8c98-2eff7aa2d0db"},{"type":"Feature","properties":{"bag_pnd":"0034100000141107","bronhouder":"G0034","creation_date":"2026-06-08T22:00:00Z","eind_registratie":null,"in_onderzoek":null,"in_onderzoek_leeg":"geenWaarde","lokaal_id":"G0034.67e5fcf1fccb4475b784d9f99c77f59e","lv_publicatiedatum":"2026-06-09T13:21:11Z","plus_status":null,"plus_status_codespace":"http://www.geostandaarden.nl/imgeo/def/2.1#VoidReasonValue","plus_status_leeg":"geenWaarde","relatieve_hoogteligging":0,"status":"bestaand","status_codespace":"http://www.geostandaarden.nl/imgeo/def/2.1#Status","status_leeg":null,"termination_date":null,"termination_date_leeg":"geenWaarde","tijdstip_registratie":"2026-06-09T13:16:13Z","version":"c17b9f6f-6006-94bd-e5b7-a23229671e19"},"geometry":{"type":"MultiPolygon","coordinates":[[[[150333.661,482955.044],[150333.631,482959.277],[150330.935,482959.259],[150330.964,482955.025],[150333.661,482955.044]]]]},"id":"759df4b3-a450-5a9c-84f8-f0b17a979572"},{"type":"Feature","properties":{"bag_pnd":"0034100000141101","bronhouder":"G0034","creation_date":"2026-06-08T22:00:00Z","eind_registratie":null,"in_onderzoek":null,"in_onderzoek_leeg":"geenWaarde","lokaal_id":"G0034.a45ba1b1b8be499fb0959dde4a3acaf5","lv_publicatiedatum":"2026-06-09T13:21:11Z","plus_status":null,"plus_status_codespace":"http://www.geostandaarden.nl/imgeo/def/2.1#VoidReasonValue","plus_status_leeg":"geenWaarde","relatieve_hoogteligging":0,"status":"bestaand","status_codespace":"http://www.geostandaarden.nl/imgeo/def/2.1#Status","status_leeg":null,"termination_date":null,"termination_date_leeg":"geenWaarde","tijdstip_registratie":"2026-06-09T13:16:14Z","version":"68bb5467-520e-36fa-8183-ec1b0ee2d81c"},"geometry":{"type":"MultiPolygon","coordinates":[[[[150324.97,482901.609],[150330.476,482905.486],[150328.462,482908.347],[150322.955,482904.47],[150324.97,482901.609]]]]},"id":"40d495c5-fa77-54c7-bcd8-88d69c6afa67"},{"type":"Feature","properties":{"bag_pnd":"0034100000141106","bronhouder":"G0034","creation_date":"2026-06-08T22:00:00Z","eind_registratie":null,"in_onderzoek":null,"in_onderzoek_leeg":"geenWaarde","lokaal_id":"G0034.aec225fa28384db5b019ecd8f96c77f8","lv_publicatiedatum":"2026-06-09T13:21:11Z","plus_status":null,"plus_status_codespace":"http://www.geostandaarden.nl/imgeo/def/2.1#VoidReasonValue","plus_status_leeg":"geenWaarde","relatieve_hoogteligging":0,"status":"bestaand","status_codespace":"http://www.geostandaarden.nl/imgeo/def/2.1#Status","status_leeg":null,"termination_date":null,"termination_date_leeg":"geenWaarde","tijdstip_registratie":"2026-06-09T13:16:13Z","version":"5f7c27db-9e1d-90fd-b9f1-d914d4a60fbc"},"geometry":{"type":"MultiPolygon","coordinates":[[[[150353.042,482943.982],[150356.229,482947.422],[150354.702,482948.837],[150351.514,482945.397],[150353.042,482943.982]]]]},"id":"64086649-b52d-576f-bfda-c55491dcea67"},{"type":"Feature","properties":{"bag_pnd":"0034100000141541","bronhouder":"G0034","creation_date":"2026-06-08T22:00:00Z","eind_registratie":null,"in_onderzoek":null,"in_onderzoek_leeg":"geenWaarde","lokaal_id":"G0034.c5cbde42e0124831999f77fffe63705e","lv_publicatiedatum":"2026-06-09T13:21:11Z","plus_status":null,"plus_status_codespace":"http://www.geostandaarden.nl/imgeo/def/2.1#VoidReasonValue","plus_status_leeg":"geenWaarde","relatieve_hoogteligging":0,"status":"bestaand","status_codespace":"http://www.geostandaarden.nl/imgeo/def/2.1#Status","status_leeg":null,"termination_date":null,"termination_date_leeg":"geenWaarde","tijdstip_registratie":"2026-06-09T13:16:18Z","version":"bc2272d6-43e4-a5ec-239e-1149c573e251"},"geometry":{"type":"MultiPolygon","coordinates":[[[[150459.76,482937.688],[150462.155,482933.847],[150464.47,482935.29],[150462.075,482939.131],[150459.76,482937.688]]]]},"id":"6ee5148a-eefb-5bd4-86cf-529166ae3aaa"},{"type":"Feature","properties":{"bag_pnd":"0034100000141569","bronhouder":"G0034","creation_date":"2026-06-08T22:00:00Z","eind_registratie":null,"in_onderzoek":null,"in_onderzoek_leeg":"geenWaarde","lokaal_id":"G0034.f4ae40578dbb40e39227685bdeb39b61","lv_publicatiedatum":"2026-06-09T13:21:11Z","plus_status":null,"plus_status_codespace":"http://www.geostandaarden.nl/imgeo/def/2.1#VoidReasonValue","plus_status_leeg":"geenWaarde","relatieve_hoogteligging":0,"status":"bestaand","status_codespace":"http://www.geostandaarden.nl/imgeo/def/2.1#Status","status_leeg":null,"termination_date":null,"termination_date_leeg":"geenWaarde","tijdstip_registratie":"2026-06-09T13:16:14Z","version":"6758404a-9745-de84-fa68-64a6b005b9c8"},"geometry":{"type":"MultiPolygon","coordinates":[[[[150424.156,482980.253],[150429.283,482976.058],[150432.241,482979.672],[150427.114,482983.868],[150424.156,482980.253]]]]},"id":"7b92c2da-3bcf-55da-a767-729832101600"},{"type":"Feature","properties":{"bag_pnd":"0034100000110297","bronhouder":"G0034","creation_date":"2019-04-09T22:00:00Z","eind_registratie":"2026-07-15T13:07:17Z","in_onderzoek":null,"in_onderzoek_leeg":"geenWaarde","lokaal_id":"G0034.b9fb2f732d484613b8546d3efa7fae47","lv_publicatiedatum":"2023-06-02T10:28:23Z","plus_status":null,"plus_status_codespace":"http://www.geostandaarden.nl/imgeo/def/2.1#VoidReasonValue","plus_status_leeg":"geenWaarde","relatieve_hoogteligging":0,"status":"bestaand","status_codespace":"http://www.geostandaarden.nl/imgeo/def/2.1#Status","status_leeg":null,"termination_date":null,"termination_date_leeg":"geenWaarde","tijdstip_registratie":"2023-06-02T10:23:55Z","version":"6e75ef7e-1373-43af-2882-cfdc5b389ffc"},"geometry":{"type":"MultiPolygon","coordinates":[[[[150378.822,482846.32],[150378.457,482851.026],[150367.36,482850.164],[150367.944,482842.657],[150378.659,482843.489],[150378.896,482840.439],[150382.504,482840.719],[150382.049,482846.571],[150378.822,482846.32]]]]},"id":"9fffb87f-39ff-5341-bab8-f0a270e1ace4"},{"type":"Feature","properties":{"bag_pnd":"0034100000110297","bronhouder":"G0034","creation_date":"2019-04-09T22:00:00Z","eind_registratie":null,"in_onderzoek":null,"in_onderzoek_leeg":"geenWaarde","lokaal_id":"G0034.b9fb2f732d484613b8546d3efa7fae47","lv_publicatiedatum":"2026-07-15T13:17:38Z","plus_status":null,"plus_status_codespace":"http://www.geostandaarden.nl/imgeo/def/2.1#VoidReasonValue","plus_status_leeg":"geenWaarde","relatieve_hoogteligging":0,"status":"bestaand","status_codespace":"http://www.geostandaarden.nl/imgeo/def/2.1#Status","status_leeg":null,"termination_date":null,"termination_date_leeg":"geenWaarde","tijdstip_registratie":"2026-07-15T13:07:17Z","version":"10d4bf7f-e173-be15-200c-cfbd85d001fc"},"geometry":{"type":"MultiPolygon","coordinates":[[[[150367.632,482846.672],[150366.531,482846.587],[150366.8,482843.136],[150367.9,482843.222],[150367.944,482842.657],[150371.572,482842.939],[150371.808,482839.889],[150378.896,482840.439],[150382.504,482840.719],[150382.049,482846.571],[150378.822,482846.32],[150378.457,482851.026],[150367.369,482850.165],[150367.36,482850.164],[150367.632,482846.672]]]]},"id":"25e42e33-95f1-52b1-9d15-c127fa20e44a"},{"type":"Feature","properties":{"bag_pnd":"0034100000118500","bronhouder":"G0034","creation_date":"2023-06-01T22:00:00Z","eind_registratie":"2026-07-15T13:07:15Z","in_onderzoek":null,"in_onderzoek_leeg":"geenWaarde","lokaal_id":"G0034.df0b48b767f94a248d30036ac8d4af69","lv_publicatiedatum":"2023-06-02T10:28:23Z","plus_status":null,"plus_status_codespace":"http://www.geostandaarden.nl/imgeo/def/2.1#VoidReasonValue","plus_status_leeg":"geenWaarde","relatieve_hoogteligging":0,"status":"bestaand","status_codespace":"http://www.geostandaarden.nl/imgeo/def/2.1#Status","status_leeg":null,"termination_date":null,"termination_date_leeg":"geenWaarde","tijdstip_registratie":"2023-06-02T10:24:09Z","version":"a8914abf-d661-b854-fcf7-ae4f58e2f785"},"geometry":{"type":"MultiPolygon","coordinates":[[[[150278.605,482955.248],[150280.572,482952.456],[150284.491,482955.217],[150282.524,482958.009],[150278.605,482955.248]]]]},"id":"9196344d-4d26-5237-8013-f17368998130"},{"type":"Feature","properties":{"bag_pnd":"0034100000118500","bronhouder":"G0034","creation_date":"2023-06-01T22:00:00Z","eind_registratie":null,"in_onderzoek":null,"in_onderzoek_leeg":"geenWaarde","lokaal_id":"G0034.df0b48b767f94a248d30036ac8d4af69","lv_publicatiedatum":"2026-07-15T13:17:38Z","plus_status":null,"plus_status_codespace":"http://www.geostandaarden.nl/imgeo/def/2.1#VoidReasonValue","plus_status_leeg":"geenWaarde","relatieve_hoogteligging":0,"status":"bestaand","status_codespace":"http://www.geostandaarden.nl/imgeo/def/2.1#Status","status_leeg":null,"termination_date":null,"termination_date_leeg":"geenWaarde","tijdstip_registratie":"2026-07-15T13:07:15Z","version":"8c366432-26c5-5c47-6716-3a45889d96f5"},"geometry":{"type":"MultiPolygon","coordinates":[[[[150283.482,482954.506],[150281.662,482957.047],[150278.788,482954.988],[150276.321,482953.22],[150279.346,482948.997],[150284.687,482952.823],[150283.482,482954.506]]]]},"id":"6317b3db-9fe9-504e-83bd-356b9ec8376d"},{"type":"Feature","properties":{"bag_pnd":"0034100000115844","bronhouder":"G0034","creation_date":"2023-06-01T22:00:00Z","eind_registratie":"2026-07-15T13:07:16Z","in_onderzoek":null,"in_onderzoek_leeg":"geenWaarde","lokaal_id":"G0034.fb964e6ad5dd439e814e271bc129e039","lv_publicatiedatum":"2023-06-02T12:17:00Z","plus_status":null,"plus_status_codespace":"http://www.geostandaarden.nl/imgeo/def/2.1#VoidReasonValue","plus_status_leeg":"geenWaarde","relatieve_hoogteligging":0,"status":"bestaand","status_codespace":"http://www.geostandaarden.nl/imgeo/def/2.1#Status","status_leeg":null,"termination_date":null,"termination_date_leeg":"geenWaarde","tijdstip_registratie":"2023-06-02T12:08:58Z","version":"39f52826-95f8-01e5-b322-5c20750776f0"},"geometry":{"type":"MultiPolygon","coordinates":[[[[150474.461,482829.99],[150482.827,482830.746],[150482.804,482830.99],[150482.703,482830.981],[150482.379,482834.567],[150482.481,482834.576],[150482.459,482834.82],[150474.093,482834.064],[150474.115,482833.82],[150474.214,482833.829],[150474.538,482830.243],[150474.439,482830.234],[150474.461,482829.99]]]]},"id":"8dc97dc2-33dc-54c4-b79f-20649bb6c3e9"},{"type":"Feature","properties":{"bag_pnd":"0034100000113533","bronhouder":"G0034","creation_date":"2019-10-20T22:00:00Z","eind_registratie":"2026-07-15T13:07:17Z","in_onderzoek":null,"in_onderzoek_leeg":"geenWaarde","lokaal_id":"G0034.ff10c8b0cdd849b4b45952f2c2fafc11","lv_publicatiedatum":"2020-07-23T10:47:21Z","plus_status":null,"plus_status_codespace":"http://www.geostandaarden.nl/imgeo/def/2.1#VoidReasonValue","plus_status_leeg":"geenWaarde","relatieve_hoogteligging":0,"status":"bestaand","status_codespace":"http://www.geostandaarden.nl/imgeo/def/2.1#Status","status_leeg":null,"termination_date":null,"termination_date_leeg":"geenWaarde","tijdstip_registratie":"2020-07-23T09:46:15Z","version":"fa5ccbbd-b816-7cc9-fa56-eac9ea712a2e"},"geometry":{"type":"MultiPolygon","coordinates":[[[[150389.94,482837.587],[150382.664,482832.462],[150388.279,482824.491],[150384.768,482820.794],[150389.807,482813.641],[150401.17,482821.646],[150400.94,482821.973],[150401.297,482823.203],[150399.684,482825.492],[150398.406,482825.57],[150392.704,482833.663],[150393.061,482834.893],[150391.449,482837.182],[150390.17,482837.26],[150389.94,482837.587]]]]},"id":"60d86b3a-33ef-5812-9c40-be50b1127053"},{"type":"Feature","properties":{"bag_pnd":"0034100000113533","bronhouder":"G0034","creation_date":"2019-10-20T22:00:00Z","eind_registratie":null,"in_onderzoek":null,"in_onderzoek_leeg":"geenWaarde","lokaal_id":"G0034.ff10c8b0cdd849b4b45952f2c2fafc11","lv_publicatiedatum":"2026-07-15T13:17:38Z","plus_status":null,"plus_status_codespace":"http://www.geostandaarden.nl/imgeo/def/2.1#VoidReasonValue","plus_status_leeg":"geenWaarde","relatieve_hoogteligging":0,"status":"bestaand","status_codespace":"http://www.geostandaarden.nl/imgeo/def/2.1#Status","status_leeg":null,"termination_date":null,"termination_date_leeg":"geenWaarde","tijdstip_registratie":"2026-07-15T13:07:17Z","version":"09287335-9f9a-d0c9-767a-eed914977cae"},"geometry":{"type":"MultiPolygon","coordinates":[[[[150389.94,482837.587],[150382.664,482832.462],[150388.279,482824.491],[150384.768,482820.794],[150381.445,482818.453],[150386.484,482811.3],[150389.807,482813.641],[150401.17,482821.646],[150400.94,482821.973],[150401.297,482823.203],[150399.684,482825.492],[150398.406,482825.57],[150392.704,482833.663],[150393.061,482834.893],[150391.449,482837.182],[150390.17,482837.26],[150389.94,482837.587]]]]},"id":"6a8593d2-2fe4-5424-a03e-dcbe5af3be95"},{"type":"Feature","properties":{"bag_pnd":"0034100000132644","bronhouder":"G0034","creation_date":"2023-06-01T22:00:00Z","eind_registratie":"2026-08-27T13:57:47Z","in_onderzoek":null,"in_onderzoek_leeg":"geenWaarde","lokaal_id":"G0034.fb964e6ad5dd439e814e271bc129e039","lv_publicatiedatum":"2026-07-15T13:17:38Z","plus_status":null,"plus_status_codespace":"http://www.geostandaarden.nl/imgeo/def/2.1#VoidReasonValue","plus_status_leeg":"geenWaarde","relatieve_hoogteligging":0,"status":"bestaand","status_codespace":"http://www.geostandaarden.nl/imgeo/def/2.1#Status","status_leeg":null,"termination_date":null,"termination_date_leeg":"geenWaarde","tijdstip_registratie":"2026-07-15T13:07:16Z","version":"de55ea2d-6e16-e6d1-2504-2af9052d24a6"},"geometry":{"type":"MultiPolygon","coordinates":[[[[150474.461,482829.99],[150482.827,482830.746],[150482.804,482830.99],[150482.703,482830.981],[150482.379,482834.567],[150482.481,482834.576],[150482.459,482834.82],[150474.093,482834.064],[150474.115,482833.82],[150474.214,482833.829],[150474.538,482830.243],[150474.439,482830.234],[150474.461,482829.99]]]]},"id":"c8d51f06-cec7-542f-b684-9a89ed588b95"},{"type":"Feature","properties":{"bag_pnd":"0034100000132644","bronhouder":"G0034","creation_date":"2023-06-01T22:00:00Z","eind_registratie":null,"in_onderzoek":null,"in_onderzoek_leeg":"geenWaarde","lokaal_id":"G0034.fb964e6ad5dd439e814e271bc129e039","lv_publicatiedatum":"2026-08-27T14:50:32Z","plus_status":null,"plus_status_codespace":"http://www.geostandaarden.nl/imgeo/def/2.1#VoidReasonValue","plus_status_leeg":"geenWaarde","relatieve_hoogteligging":0,"status":"bestaand","status_codespace":"http://www.geostandaarden.nl/imgeo/def/2.1#Status","status_leeg":null,"termination_date":null,"termination_date_leeg":"geenWaarde","tijdstip_registratie":"2026-08-27T13:57:47Z","version":"d392acf2-1ba4-1e05-c63e-a4152cd62ae2"},"geometry":{"type":"MultiPolygon","coordinates":[[[[150482.678,482831.259],[150482.425,482831.617],[150484.807,482833.337],[150485.508,482832.338],[150485.811,482832.551],[150479.589,482841.421],[150475.874,482838.836],[150477.416,482836.62],[150470.787,482831.932],[150478.448,482820.952],[150485.586,482825.99],[150482.563,482830.269],[150482.505,482830.351],[150483.048,482830.734],[150482.678,482831.259]]]]},"id":"e71e9daf-77b5-56e9-8b03-6239396db235"}],"numberReturned":77}
