{"type":"FeatureCollection","timeStamp":"2026-09-22T10:55:12Z","links":[{"rel":"self","title":"This document as GeoJSON","type":"application/geo+json","href":"https://api.pdok.nl/kadaster/brk-kadastrale-kaart/ogc/v1/collections/perceel/items?crs=http%3A%2F%2Fwww.opengis.net%2Fdef%2Fcrs%2FEPSG%2F0%2F28992&f=json&filter=akr_kadastrale_gemeente_code_waarde+%3D+%27AMR04%27+AND+sectie+%3D+%27C%27+AND+perceelnummer+%3D+2426&limit=1"},{"rel":"alternate","title":"This document as JSON-FG","type":"application/vnd.ogc.fg+json","href":"https://api.pdok.nl/kadaster/brk-kadastrale-kaart/ogc/v1/collections/perceel/items?crs=http%3A%2F%2Fwww.opengis.net%2Fdef%2Fcrs%2FEPSG%2F0%2F28992&f=jsonfg&filter=akr_kadastrale_gemeente_code_waarde+%3D+%27AMR04%27+AND+sectie+%3D+%27C%27+AND+perceelnummer+%3D+2426&limit=1"},{"rel":"alternate","title":"This document as HTML","type":"text/html","href":"https://api.pdok.nl/kadaster/brk-kadastrale-kaart/ogc/v1/collections/perceel/items?crs=http%3A%2F%2Fwww.opengis.net%2Fdef%2Fcrs%2FEPSG%2F0%2F28992&f=html&filter=akr_kadastrale_gemeente_code_waarde+%3D+%27AMR04%27+AND+sectie+%3D+%27C%27+AND+perceelnummer+%3D+2426&limit=1"}],"features":[{"type":"Feature","properties":{"akr_kadastrale_gemeente_code_code":"25","akr_kadastrale_gemeente_code_waarde":"AMR04","begin_geldigheid":"2024-07-04T10:18:53Z","identificatie_lokaal_id":"88860242670000","identificatie_namespace":"NL.IMKAD.KadastraalObject","kadastrale_gemeente_code":"25","kadastrale_gemeente_waarde":"Almere","kadastrale_grootte_waarde":1120,"perceelnummer":2426,"perceelnummer_rotatie":0,"perceelnummer_verschuiving_delta_x":0,"perceelnummer_verschuiving_delta_y":0,"sectie":"C","soort_grootte_code":"1","soort_grootte_waarde":"Vastgesteld","status_historie_code":"G","status_historie_waarde":"Geldig","tijdstip_registratie":"2024-07-04T10:18:53Z","volgnummer":0},"geometry":{"type":"MultiPolygon","coordinates":[[[[150373.311,482892.509],[150392.36,482932.199],[150394.826,482937.338],[150375.89,482951.246],[150374.431,482948.92],[150374.41,482948.887],[150374.401,482948.872],[150371.544,482944.332],[150368.625,482939.797],[150365.744,482935.09],[150363.753,482931.41],[150363.719,482931.347],[150363.239,482930.461],[150362.654,482929.16],[150362.649,482929.148],[150361.032,482925.552],[150359.72,482920.919],[150359.513,482917.464],[150359.45,482916.418],[150359.656,482915.479],[150360.518,482911.556],[150362.034,482907.227],[150362.213,482906.716],[150364.559,482902.235],[150367.418,482898.578],[150367.838,482898.04],[150368.61,482897.233],[150371.591,482894.117],[150371.88,482893.815],[150372.149,482893.57],[150373.311,482892.509]]]]},"id":"f60a0339-206a-57a0-961a-ed2d555d766f"}],"numberReturned":1}
