{
  "type": "FeatureCollection",
  "name": "NatureLab NL-01 parcel in local metric coordinates",
  "naturelab_crs": {
    "source": "EPSG:28992",
    "local_origin_rd_m": [
      150340.0,
      482880.0
    ],
    "axis": "x=east, y=north, z=up",
    "units": "metre"
  },
  "features": [
    {
      "type": "Feature",
      "properties": {
        "site_id": "NL01",
        "cadastral_id": "AMR04-C-2426",
        "registered_area_m2": 1120
      },
      "geometry": {
        "type": "Polygon",
        "coordinates": [
          [
            [
              33.311,
              12.509
            ],
            [
              52.36,
              52.199
            ],
            [
              54.826,
              57.338
            ],
            [
              35.89,
              71.246
            ],
            [
              34.431,
              68.92
            ],
            [
              34.41,
              68.887
            ],
            [
              34.401,
              68.872
            ],
            [
              31.544,
              64.332
            ],
            [
              28.625,
              59.797
            ],
            [
              25.744,
              55.09
            ],
            [
              23.753,
              51.41
            ],
            [
              23.719,
              51.347
            ],
            [
              23.239,
              50.461
            ],
            [
              22.654,
              49.16
            ],
            [
              22.649,
              49.148
            ],
            [
              21.032,
              45.552
            ],
            [
              19.72,
              40.919
            ],
            [
              19.513,
              37.464
            ],
            [
              19.45,
              36.418
            ],
            [
              19.656,
              35.479
            ],
            [
              20.518,
              31.556
            ],
            [
              22.034,
              27.227
            ],
            [
              22.213,
              26.716
            ],
            [
              24.559,
              22.235
            ],
            [
              27.418,
              18.578
            ],
            [
              27.838,
              18.04
            ],
            [
              28.61,
              17.233
            ],
            [
              31.591,
              14.117
            ],
            [
              31.88,
              13.815
            ],
            [
              32.149,
              13.57
            ],
            [
              33.311,
              12.509
            ]
          ]
        ]
      }
    }
  ]
}
